{"version": 0.6, "generator": "Overpass API 0.7.62.4 2390de5a", "osm3s": {"timestamp_osm_base": "2025-01-12T15:30:02Z", "copyright": "The data included in this document is from www.openstreetmap.org. The data is made available under ODbL."}, "elements": [{"type": "node", "id": 447773454, "lat": 48.816062, "lon": 2.3098785, "tags": {"leisure": "fitness_centre", "name": "Fitness Park", "old_name": "magic form", "opening_hours": "Mo-Su 06:00-23:00", "source": "survey", "source:opening_hours": "Montroge Mag 11/2022", "wheelchair": "no"}}, {"type": "node", "id": 530272869, "lat": 48.8510187, "lon": 2.3762208, "tags": {"addr:city": "Paris", "addr:housenumber": "80", "addr:postcode": "75012", "addr:street": "Rue Traversi\u00e8re", "brand": "Cercles de la forme", "leisure": "fitness_centre", "name": "Les Cercles de la Forme Bastille", "phone": "+33 1 43 07 09 09", "sport": "fitness", "website": "https://www.cerclesdelaforme.com/"}}, {"type": "node", "id": 678902108, "lat": 48.8390465, "lon": 2.2974829}, {"type": "node", "id": 678904155, "lat": 48.8391407, "lon": 2.2976474}, {"type": "node", "id": 678904765, "lat": 48.8392211, "lon": 2.297558}, {"type": "node", "id": 678936845, "lat": 48.8391138, "lon": 2.2973848}, {"type": "node", "id": 683438716, "lat": 48.8447088, "lon": 2.286911, "tags": {"contact:city": "Paris", "contact:housenumber": "33", "contact:postcode": "75015", "contact:street": "Rue de l'\u00c9glise", "contact:website": "http://crossfitlutece.com", "leisure": "fitness_centre", "name": "Crossfit Lut\u00e8ce", "name:en": "Crossfit Lutece", "opening_hours": "Mo-Su 07:00-22:00", "source": "cadastre-dgi-fr source : Direction G\u00e9n\u00e9rale des Imp\u00f4ts - Cadastre ; mise \u00e0 jour : 2010"}}, {"type": "node", "id": 685907646, "lat": 48.8689539, "lon": 2.3365607, "tags": {"check_date": "2023-03-19", "contact:city": "Paris", "contact:housenumber": "14", "contact:postcode": "75002", "contact:street": "Rue Saint-Augustin", "leisure": "fitness_centre", "name": "Dynamo- Spinning", "name:en": "Dynamo- Spinning", "source": "cadastre-dgi-fr source : Direction G\u00e9n\u00e9rale des Imp\u00f4ts - Cadastre. Mise \u00e0 jour : 2010"}}, {"type": "node", "id": 689144616, "lat": 48.8699276, "lon": 2.3291514, "tags": {"contact:city": "Paris", "contact:housenumber": "39", "contact:postcode": "75002", "contact:street": "Boulevard des Capucines", "contact:website": "http://yogavillage.fr/", "leisure": "fitness_centre", "name": "yoga village Paris", "source": "cadastre-dgi-fr source : Direction G\u00e9n\u00e9rale des Imp\u00f4ts - Cadastre. Mise \u00e0 jour : 2010"}}, {"type": "node", "id": 700256810, "lat": 48.8598439, "lon": 2.350035, "tags": {"addr:city": "Paris", "addr:country": "FR", "addr:housenumber": "16-20", "addr:postcode": "75004", "addr:street": "Rue Quincampoix", "internet_access": "wlan", "leisure": "fitness_centre", "name": "L'Usine Beaubourg", "opening_hours": "Mo-Su 07:00-23:00", "source": "cadastre-dgi-fr source : Direction G\u00e9n\u00e9rale des Imp\u00f4ts - Cadastre. Mise \u00e0 jour : 2010", "wheelchair": "yes", "wikidata": "Q22921525"}}, {"type": "node", "id": 721443159, "lat": 48.8578902, "lon": 2.3666463, "tags": {"addr:city": "Paris", "addr:housenumber": "12-14", "addr:postcode": "75003", "addr:street": "Rue Saint-Gilles", "leisure": "fitness_centre", "name": "Omm Studio", "source": "cadastre-dgi-fr source : Direction G\u00e9n\u00e9rale des Imp\u00f4ts - Cadastre. Mise \u00e0 jour : 2010"}}, {"type": "node", "id": 789974231, "lat": 48.8961398, "lon": 2.3816273}, {"type": "node", "id": 789974272, "lat": 48.8960921, "lon": 2.3814414}, {"type": "node", "id": 789974290, "lat": 48.8961277, "lon": 2.3814327}, {"type": "node", "id": 789975300, "lat": 48.8963931, "lon": 2.3813864}, {"type": "node", "id": 789975828, "lat": 48.8961213, "lon": 2.3816143}, {"type": "node", "id": 789976955, "lat": 48.8964023, "lon": 2.3815482}, {"type": "node", "id": 789978296, "lat": 48.8961455, "lon": 2.3814177}, {"type": "node", "id": 789979540, "lat": 48.8961926, "lon": 2.3816051}, {"type": "node", "id": 789979881, "lat": 48.8963501, "lon": 2.3816001}, {"type": "node", "id": 789980017, "lat": 48.8961044, "lon": 2.3816314}, {"type": "node", "id": 789980256, "lat": 48.8962866, "lon": 2.3814135}, {"type": "node", "id": 789980405, "lat": 48.8962275, "lon": 2.3815998}, {"type": "node", "id": 789980718, "lat": 48.8960787, "lon": 2.3815208}, {"type": "node", "id": 789981036, "lat": 48.8960846, "lon": 2.3816163}, {"type": "node", "id": 789981785, "lat": 48.8962679, "lon": 2.3814021}, {"type": "node", "id": 789981919, "lat": 48.8961759, "lon": 2.3816219}, {"type": "node", "id": 789985771, "lat": 48.8962844, "lon": 2.3816095}, {"type": "node", "id": 789986716, "lat": 48.8963037, "lon": 2.3813964}, {"type": "node", "id": 789986858, "lat": 48.8963486, "lon": 2.3815522}, {"type": "node", "id": 789986918, "lat": 48.8962099, "lon": 2.3816178}, {"type": "node", "id": 789988461, "lat": 48.8961568, "lon": 2.3816086}, {"type": "node", "id": 789990139, "lat": 48.896245, "lon": 2.3816146}, {"type": "node", "id": 789990632, "lat": 48.8961101, "lon": 2.3814224}, {"type": "node", "id": 789992937, "lat": 48.8960957, "lon": 2.3815071}, {"type": "node", "id": 789995082, "lat": 48.8962625, "lon": 2.3815941}, {"type": "node", "id": 840927418, "lat": 48.872063, "lon": 2.309139, "tags": {"contact:city": "Paris", "contact:housenumber": "79", "contact:postcode": "75008", "contact:street": "Rue La Bo\u00e9tie", "leisure": "fitness_centre", "name": "Dynamo Spinning", "name:en": "Dynamo Spinning", "source": "cadastre-dgi-fr source : Direction G\u00e9n\u00e9rale des Imp\u00f4ts - Cadastre. Mise \u00e0 jour : 2010"}}, {"type": "node", "id": 880182454, "lat": 48.902595, "lon": 2.3024237}, {"type": "node", "id": 880183334, "lat": 48.9027861, "lon": 2.3025375}, {"type": "node", "id": 880206442, "lat": 48.9026088, "lon": 2.3026767}, {"type": "node", "id": 880226149, "lat": 48.9026278, "lon": 2.3027198}, {"type": "node", "id": 880226221, "lat": 48.9028142, "lon": 2.3026041}, {"type": "node", "id": 880227113, "lat": 48.9026988, "lon": 2.3023586}, {"type": "node", "id": 880228650, "lat": 48.9028981, "lon": 2.3024887}, {"type": "node", "id": 880234217, "lat": 48.9026371, "lon": 2.3025156}, {"type": "node", "id": 880245643, "lat": 48.9025297, "lon": 2.3022816}, {"type": "node", "id": 880245750, "lat": 48.9026647, "lon": 2.3022004}, {"type": "node", "id": 880248843, "lat": 48.9027735, "lon": 2.3026462}, {"type": "node", "id": 880256892, "lat": 48.9026512, "lon": 2.3027729}, {"type": "node", "id": 880265984, "lat": 48.9025689, "lon": 2.3025867}, {"type": "node", "id": 880279545, "lat": 48.9026941, "lon": 2.3026333}, {"type": "node", "id": 880435502, "lat": 48.8319607, "lon": 2.2523086}, {"type": "node", "id": 880436037, "lat": 48.8319851, "lon": 2.2523766}, {"type": "node", "id": 880436385, "lat": 48.8317764, "lon": 2.2523734}, {"type": "node", "id": 880436607, "lat": 48.8319089, "lon": 2.2523818}, {"type": "node", "id": 880437208, "lat": 48.8318612, "lon": 2.2522382}, {"type": "node", "id": 880437429, "lat": 48.8319319, "lon": 2.2523332}, {"type": "node", "id": 880438269, "lat": 48.8317912, "lon": 2.2524165}, {"type": "node", "id": 880438626, "lat": 48.8318967, "lon": 2.2523465}, {"type": "node", "id": 880439344, "lat": 48.8319288, "lon": 2.2523245}, {"type": "node", "id": 880440114, "lat": 48.8318245, "lon": 2.2525142}, {"type": "node", "id": 880440358, "lat": 48.8318675, "lon": 2.2522578}, {"type": "node", "id": 880440559, "lat": 48.8319031, "lon": 2.2524468}, {"type": "node", "id": 880440862, "lat": 48.831761, "lon": 2.2523113}, {"type": "node", "id": 880441089, "lat": 48.8319088, "lon": 2.2523421}, {"type": "node", "id": 880442305, "lat": 48.8318897, "lon": 2.2524584}, {"type": "node", "id": 880442925, "lat": 48.8319256, "lon": 2.2524275}, {"type": "node", "id": 880443265, "lat": 48.8317561, "lon": 2.2523148}, {"type": "node", "id": 880443457, "lat": 48.8319201, "lon": 2.2523717}, {"type": "node", "id": 921160231, "lat": 48.8205913, "lon": 2.3485207}, {"type": "node", "id": 921163285, "lat": 48.8207826, "lon": 2.3483998}, {"type": "node", "id": 921163799, "lat": 48.8205341, "lon": 2.3483124}, {"type": "node", "id": 921163852, "lat": 48.8207576, "lon": 2.3483142}, {"type": "node", "id": 921164834, "lat": 48.8205705, "lon": 2.3482904}, {"type": "node", "id": 938011740, "lat": 48.8749903, "lon": 2.2860127, "tags": {"leisure": "fitness_centre", "name": "Surface", "source": "cadastre-dgi-fr source : Direction G\u00e9n\u00e9rale des Imp\u00f4ts - Cadastre. Mise \u00e0 jour : 2010"}}, {"type": "node", "id": 1225227328, "lat": 48.8451684, "lon": 2.2609137, "tags": {"check_date:opening_hours": "2023-06-13", "leisure": "fitness_centre", "name": "Body Hit", "opening_hours:signed": "no", "source": "survey"}}, {"type": "node", "id": 1225227335, "lat": 48.8449569, "lon": 2.2603801, "tags": {"check_date:opening_hours": "2023-06-13", "leisure": "fitness_centre", "name": "Studio 3C", "opening_hours:signed": "no", "source": "survey 2019"}}, {"type": "node", "id": 1279133393, "lat": 48.821707, "lon": 2.262333}, {"type": "node", "id": 1279133462, "lat": 48.82168, "lon": 2.262345}, {"type": "node", "id": 1279133589, "lat": 48.821685, "lon": 2.262226}, {"type": "node", "id": 1279133603, "lat": 48.821472, "lon": 2.26225}, {"type": "node", "id": 1279133632, "lat": 48.821676, "lon": 2.26218}, {"type": "node", "id": 1279133656, "lat": 48.821648, "lon": 2.26236}, {"type": "node", "id": 1279133663, "lat": 48.8214919, "lon": 2.2623301, "tags": {"addr:housenumber": "92", "source": "cadastre-dgi-fr source : Direction G\u00e9n\u00e9rale des Imp\u00f4ts - Cadastre ; mise \u00e0 jour : 2011"}}, {"type": "node", "id": 1279133697, "lat": 48.82167, "lon": 2.262151}, {"type": "node", "id": 1279133703, "lat": 48.821515, "lon": 2.262423}, {"type": "node", "id": 1279133715, "lat": 48.821562, "lon": 2.262205}, {"type": "node", "id": 1292131470, "lat": 48.8661869, "lon": 2.3681993, "tags": {"addr:city": "Paris", "addr:housenumber": "27", "addr:postcode": "75011", "addr:street": "Rue du Grand Prieur\u00e9", "check_date": "2023-10-09", "leisure": "fitness_centre", "name": "Kiwill - Spinning", "name:en": "Kiwill - Spinning"}}, {"type": "node", "id": 1399940600, "lat": 48.871644, "lon": 2.2881063, "tags": {"leisure": "fitness_centre", "name": "Waris Dirie by John Reed", "sport": "fitness"}}, {"type": "node", "id": 1427038394, "lat": 48.8837878, "lon": 2.326812, "tags": {"check_date": "2024-09-08", "leisure": "fitness_centre", "name": "EPISOD", "source": "survey:2016-04-29"}}, {"type": "node", "id": 1504896007, "lat": 48.8215814, "lon": 2.2623891}, {"type": "node", "id": 1640452952, "lat": 48.8401487, "lon": 2.2578859, "tags": {"leisure": "fitness_centre", "name": "Body & Brain", "source": "survey", "sport": "yoga"}}, {"type": "node", "id": 1671951615, "lat": 48.86515, "lon": 2.3497634, "tags": {"leisure": "fitness_centre", "name": "Neoness", "wheelchair": "limited"}}, {"type": "node", "id": 1790036423, "lat": 48.8667969, "lon": 2.3674379, "tags": {"addr:housenumber": "5", "addr:postcode": "75011", "addr:street": "Avenue de la R\u00e9publique", "branch": "R\u00e9publique", "brand": "Fitness Park", "brand:wikidata": "Q102351191", "check_date": "2024-11-11", "check_date:opening_hours": "2024-11-11", "leisure": "fitness_centre", "name": "Fitness Park", "opening_hours": "Mo-Su,PH 00:00-00:00"}}, {"type": "node", "id": 1791366389, "lat": 48.8390808, "lon": 2.2974329, "tags": {"addr:housenumber": "75", "source": "cadastre-dgi-fr source : Direction G\u00e9n\u00e9rale des Imp\u00f4ts - Cadastre. Mise \u00e0 jour : 2012"}}, {"type": "node", "id": 1930542198, "lat": 48.8506984, "lon": 2.3451193, "tags": {"contact:city": "Paris", "contact:housenumber": "71", "contact:phone": "+33 1 53 10 70 80", "contact:postcode": "75005", "contact:street": "Boulevard Saint-Germain", "contact:website": "https://ritm-sport.fr/", "leisure": "fitness_centre", "name": "Ritm - St Germain", "official_name": "Ritm St Germain - Salle De Sport Paris 5\u00c8me", "opening_hours": "Mo-Fr 07:00-22:00; Sa-Su 09:00-19:00", "ref:FR:SIRET": "43269652400169", "sport": "fitness", "wheelchair": "yes"}}, {"type": "node", "id": 2217523037, "lat": 48.823382, "lon": 2.3619048, "tags": {"brand": "Basic-Fit", "brand:wikidata": "Q40165577", "leisure": "fitness_centre", "name": "Basic-Fit"}}, {"type": "node", "id": 2328496615, "lat": 48.867758, "lon": 2.3688915, "tags": {"check_date": "2024-06-26", "leisure": "fitness_centre", "name": "NR Fight club", "sport": "boxing", "website": "https://www.nrfight.com/club-republique-paris/"}}, {"type": "node", "id": 2352352174, "lat": 48.8306746, "lon": 2.2755394, "tags": {"check_date": "2024-10-26", "leisure": "fitness_centre", "name": "Forest Hill Aquaboulevard", "opening_hours": "7:00-0:00", "operator": "Forest Hill", "personal_trainer": "yes", "phone": "+33 1 40601000", "sauna": "yes", "swimming_pool": "yes"}}, {"type": "node", "id": 2365882489, "lat": 48.8164435, "lon": 2.3506754, "tags": {"addr:city": "Gentilly", "addr:housenumber": "1", "addr:postcode": "94250", "addr:street": "Place de la Victoire du 8 Mai 1945", "leisure": "fitness_centre", "name": "L'Academy"}}, {"type": "node", "id": 2409849217, "lat": 48.8313926, "lon": 2.3720566, "tags": {"contact:phone": "+33 1 45 82 76 58", "contact:website": "http://platiniumcenterparis.weebly.com/", "leisure": "fitness_centre", "name": "Platinium Hybrid Training Center"}}, {"type": "node", "id": 2799009834, "lat": 48.8350353, "lon": 2.2897029, "tags": {"leisure": "fitness_centre", "name": "Espace Yuzu", "sport": "yoga"}}, {"type": "node", "id": 2822414001, "lat": 48.874711, "lon": 2.33266, "tags": {"brand": "Basic-Fit", "brand:wikidata": "Q40165577", "leisure": "fitness_centre", "name": "Basic-Fit", "opening_hours": "Mo-Fr 06:00-22:00, Sa 09:00-19:00, Su 09:00-19:00,PH 09:00-16:00"}}, {"type": "node", "id": 3054057200, "lat": 48.8732079, "lon": 2.3741442, "tags": {"check_date:opening_hours": "2023-11-03", "leisure": "fitness_centre", "name": "Fight Room Belleville", "opening_hours:signed": "no", "sport": "boxing", "website": "https://fightroom.fr/", "wheelchair": "limited"}}, {"type": "node", "id": 3102381731, "lat": 48.8927777, "lon": 2.3806617, "tags": {"alt_name": "Enjoy", "contact:website": "http://www.enjoy-fkc.com", "leisure": "fitness_centre", "name": "Enjoy by FKC"}}, {"type": "node", "id": 3109782531, "lat": 48.879407, "lon": 2.290025, "tags": {"contact:city": "Paris", "contact:housenumber": "71", "contact:phone": "+33 1 80 49 09 20", "contact:postcode": "75017", "contact:street": "Avenue Des Ternes", "contact:website": "https://ritm-sport.fr/", "leisure": "fitness_centre", "name": "Ritm - Ternes", "official_name": "Ritm Ternes - Salle De Sport Paris 17\u00c8me", "opening_hours": "Mo-Fr 07:00-22:00; Sa-Su 09:00-19:00", "ref:FR:SIRET": "43269652400219"}}, {"type": "node", "id": 3126178833, "lat": 48.8338945, "lon": 2.2873449, "tags": {"contact:city": "Paris", "contact:housenumber": "31", "contact:phone": "+33 1 55 76 10 00", "contact:postcode": "75015", "contact:street": "Rue du Hameau", "contact:website": "https://www.cerclesdelaforme.com/", "leisure": "fitness_centre", "name": "Les Cercles de la Forme", "sport": "fitness"}}, {"type": "node", "id": 3166666082, "lat": 48.8815466, "lon": 2.3738749, "tags": {"brand": "Neoness", "brand:wikidata": "Q86668014", "check_date": "2024-08-19", "leisure": "fitness_centre", "level": "-1", "name": "Neoness", "sport": "fitness"}}, {"type": "node", "id": 3284932897, "lat": 48.8373174, "lon": 2.2594385, "tags": {"contact:housenumber": "123 bis", "contact:street": "Boulevard Murat", "leisure": "fitness_centre", "name": "Best Training", "phone": "+33 1 56 40 00 00", "sport": "fitness"}}, {"type": "node", "id": 3305453871, "lat": 48.87475, "lon": 2.3549541, "tags": {"email": "casayogaparis@gmail.com", "leisure": "fitness_centre", "name": "CasaYoga", "source": "http://www.casayoga-paris.fr/", "sport": "yoga", "website": "http://www.casayoga-paris.fr/"}}, {"type": "node", "id": 3482693201, "lat": 48.845331, "lon": 2.2842075, "tags": {"brand": "Neoness", "brand:wikidata": "Q86668014", "leisure": "fitness_centre", "name": "Neoness", "opening_hours": "Mo-Fr 07:00-22:00; Sa 09:00-19:00; Su 09:00-17:00"}}, {"type": "node", "id": 3523117796, "lat": 48.8697077, "lon": 2.2978909, "tags": {"contact:city": "Paris", "contact:housenumber": "55", "contact:postcode": "75008", "contact:street": "Avenue Marceau", "leisure": "fitness_centre", "name": "Midtown Studio"}}, {"type": "node", "id": 3655680391, "lat": 48.8316452, "lon": 2.3374329, "tags": {"leisure": "fitness_centre", "name": "Le Cercle Saint-Jacques", "opening_hours": "Mo-Fr 07:30-22:00, Sa-Su 09:00-18:30", "website": "https://www.cerclesdelaforme.com/"}}, {"type": "node", "id": 3672042540, "lat": 48.8680988, "lon": 2.3544116, "tags": {"leisure": "fitness_centre", "name": "aqua by", "website": "https://aqua-by.com/nos-studios/studio-reaumur/"}}, {"type": "node", "id": 3689296452, "lat": 48.8386474, "lon": 2.3881923, "tags": {"addr:city": "Paris", "addr:housenumber": "64", "addr:postcode": "75012", "addr:street": "Boulevard de Bercy", "brand": "Liberty Gym", "brand:wikidata": "Q101768284", "leisure": "fitness_centre", "name": "Liberty Gym", "opening_hours": "Mo-Su,PH 06:00-23:00", "sport": "athletics", "wheelchair": "limited"}}, {"type": "node", "id": 3780950261, "lat": 48.8732504, "lon": 2.305823, "tags": {"leisure": "fitness_centre", "name": "CMG Sports Club"}}, {"type": "node", "id": 3797843021, "lat": 48.8395086, "lon": 2.3596416, "tags": {"brand": "Neoness", "brand:wikidata": "Q86668014", "leisure": "fitness_centre", "name": "Neoness", "sport": "fitness", "website": "http://www.neoness-forme.com/salles-sport-fitness/salle-sport-paris-5.htm", "wheelchair": "yes"}}, {"type": "node", "id": 3857262228, "lat": 48.8145718, "lon": 2.3150331, "tags": {"addr:street": "Rue de Saisset", "brand": "L'Orange Bleue", "brand:wikidata": "Q3204640", "contact:housenumber": "18", "leisure": "fitness_centre", "name": "L'Orange Bleue", "opening_hours": "Mo-Tu, Th-Fr 17:00-21:00; We 10:00-21:00; Sa 09:30-12:30", "phone": "+33 9 51 04 26 34", "source": "survey", "sport": "fitness", "website": "https://www.lorangebleue.fr/clubs/montrouge/"}}, {"type": "node", "id": 4016242321, "lat": 48.8842842, "lon": 2.324058, "tags": {"leisure": "fitness_centre", "name": "n\u00fcdiet", "source": "survey:16-01-23"}}, {"type": "node", "id": 4193436966, "lat": 48.888066, "lon": 2.3230183, "tags": {"leisure": "fitness_centre", "name": "Battling Club", "sport": "fitness"}}, {"type": "node", "id": 4198995790, "lat": 48.8693674, "lon": 2.3321747, "tags": {"addr:city": "Paris", "addr:housenumber": "6", "addr:postcode": "75002", "addr:street": "Rue Daunou", "check_date": "2023-09-21", "description": "Fond\u00e9 en 2014, R2 Training c'est aujourd'hui 2 sites \u00e0 Paris et 3 sites \u00e0 Londres.", "leisure": "fitness_centre", "name": "R2 Training Vend\u00f4me CrossFit", "opening_hours": "Mo-Fr 07:00-21:00; Sa 09:00-16:00; Su 10:00-13:00", "phone": "+33 1 44 82 06 81", "sport": "fitness;crossfit;hyrox;weightlifting;gym", "website": "https://www.r2training.fr/"}}, {"type": "node", "id": 4385157092, "lat": 48.8869944, "lon": 2.2743765, "tags": {"addr:housenumber": "27-31", "addr:postcode": "92200", "addr:street": "Boulevard d'Inkermann", "leisure": "fitness_centre", "name": "Centre aquatique de Neuilly-sur-Seine", "name:en": "Centre aquatique de Neuilly-sur-Seine", "opening_hours": "Mo-Su 09:00-21:00"}}, {"type": "node", "id": 4406898589, "lat": 48.8238933, "lon": 2.335824, "tags": {"check_date": "2023-04-29", "leisure": "fitness_centre", "level": "0", "name": "K\u00e2yastha Yoga", "opening_hours": "Mo-Su 09:30-21:30", "sport": "yoga"}}, {"type": "node", "id": 4427909521, "lat": 48.8387401, "lon": 2.3179639, "tags": {"brand": "Neoness", "brand:wikidata": "Q86668014", "layer": "2", "leisure": "fitness_centre", "level": "5", "name": "Neoness", "source": "survey", "wheelchair": "yes"}}, {"type": "node", "id": 4489276589, "lat": 48.8997293, "lon": 2.3053122, "tags": {"addr:housenumber": "73", "leisure": "fitness_centre", "name": "On Air"}}, {"type": "node", "id": 4554150689, "lat": 48.8873017, "lon": 2.3851061, "tags": {"addr:city": "Paris", "addr:housenumber": "145", "addr:postcode": "75019", "addr:street": "Avenue Jean Jaur\u00e8s", "leisure": "fitness_centre", "name": "Kikentai", "name:en": "Kikentai", "name:fr": "Kikentai", "phone": "+33153199191", "website": "https://kikentai.eu/"}}, {"type": "node", "id": 4657177273, "lat": 48.8293424, "lon": 2.3757194, "tags": {"leisure": "fitness_centre", "name": "Fitness Park", "opening_hours": "Mo-Fr 08:30-21:30; Sa 09:00-19:00; Su 10:00-16:00"}}, {"type": "node", "id": 4666702189, "lat": 48.884562, "lon": 2.2902319, "tags": {"addr:housenumber": "15", "addr:street": "Boulevard Gouvion-Saint-Cyr", "leisure": "fitness_centre", "name": "RAR Crossfit", "opening_hours": "Mo-Fr 09:00-22:00; Sa 09:00-16:00"}}, {"type": "node", "id": 4824911524, "lat": 48.884124, "lon": 2.3472403, "tags": {"leisure": "fitness_centre", "name": "Le Cercle"}}, {"type": "node", "id": 4855418068, "lat": 48.8761189, "lon": 2.3380306, "tags": {"check_date:opening_hours": "2022-09-18", "leisure": "fitness_centre", "name": "Keep Cool", "opening_hours": "Mo-Su 06:00-23:00", "operator": "Keep Cool", "website": "http://keepcool.fr"}}, {"type": "node", "id": 4964630756, "lat": 48.8274739, "lon": 2.2804312, "tags": {"check_date:opening_hours": "2024-10-20", "leisure": "fitness_centre", "name": "Fitness Parc", "opening_hours": "Mo-Su 06:00-23:00", "phone": "+33 6 01 00 09 21"}}, {"type": "node", "id": 5052113392, "lat": 48.8923293, "lon": 2.3158391, "tags": {"addr:city": "Paris", "addr:housenumber": "5", "addr:postcode": "75017", "addr:street": "Rue Bernard Buffet", "description": "Salle de sport - Gym", "leisure": "fitness_centre", "name": "Neoness Paris Batignolles - Place de Clichy", "phone": "+331 83 79 01 20", "website": "http://www.neoness-forme.com/salles-sport-fitness/salle-sport-paris-17.htm"}}, {"type": "node", "id": 5144143177, "lat": 48.8246821, "lon": 2.3644415, "tags": {"branch": "Paris 13", "contact:city": "Paris", "contact:housenumber": "66", "contact:phone": "+33 1 44 24 16 38", "contact:postcode": "75013", "contact:street": "Avenue d'Ivry", "contact:website": "http://paris13.gigagym.fr/", "leisure": "fitness_centre", "level": "2", "name": "Gygagym", "opening_hours": "Mo-Fr 06:30-23:00; Sa 09:00-20:00; Su,PH 09:00-17:00"}}, {"type": "node", "id": 5193220868, "lat": 48.8387912, "lon": 2.3879862, "tags": {"description": "boxe thai", "leisure": "fitness_centre", "name": "Team Zeitoun", "sport": "boxing", "website": "https://www.teamzeitoun.fr/"}}, {"type": "node", "id": 5287870036, "lat": 48.8186165, "lon": 2.3238437, "tags": {"brand": "KeepCool", "brand:wikidata": "Q100146251", "leisure": "fitness_centre", "name": "KeepCool", "opening_hours": "Mo-Su,PH 06:00-23:00", "phone": "+33 1 73 20 31 12", "website": "https://www.keepcool.fr/", "wheelchair": "limited"}}, {"type": "node", "id": 5343370533, "lat": 48.8667639, "lon": 2.3449985, "tags": {"leisure": "fitness_centre", "level": "0", "name": "Salle", "opening_hours": "Mo-Fr 10:00-19:00", "source": "survey 11/2017", "wheelchair": "yes"}}, {"type": "node", "id": 5363900233, "lat": 48.8589249, "lon": 2.3494495, "tags": {"check_date": "2024-02-02", "leisure": "fitness_centre", "name": "Les cercles de la forme", "opening_hours": "Mo-Fr 07:30-22:00; Sa, Su 10:00-19:00", "phone": "+33144540290", "website": "https://www.cerclesdelaforme.com/salle-de-sport/chatelet-4eme/", "wheelchair": "yes"}}, {"type": "node", "id": 5445508333, "lat": 48.8616632, "lon": 2.3507376, "tags": {"addr:city": "Paris", "addr:housenumber": "61", "addr:postcode": "75004", "addr:street": "Rue Quincampoix", "leisure": "fitness_centre", "name": "Kitten & Puppi", "sport": "yoga", "wheelchair": "no"}}, {"type": "node", "id": 5493190130, "lat": 48.8460377, "lon": 2.3821436, "tags": {"addr:city": "Paris", "addr:housenumber": "17", "addr:postcode": "75012", "addr:street": "Rue Crozatier", "brand": "Basic-Fit", "brand:wikidata": "Q40165577", "brand:wikipedia": "nl:Basic-Fit", "leisure": "fitness_centre", "name": "Basic-Fit", "opening_hours": "Mo-Fr 08:00-22:30, Sa-Su 09:00-16:00"}}, {"type": "node", "id": 5581316451, "lat": 48.8401779, "lon": 2.3333016, "tags": {"addr:city": "Paris", "addr:housenumber": "3", "addr:postcode": "75014", "addr:street": "Rue Campagne Premi\u00e8re", "leisure": "fitness_centre", "name": "Yoga Garden Rive Gauche", "sport": "yoga;vinyasa_yoga;bikram_yoga;yin_yoga;hatha_yoga;hot_yoga", "website": "http://www.bikramrivegauche.com/"}}, {"type": "node", "id": 5627073270, "lat": 48.8245617, "lon": 2.3729854, "tags": {"leisure": "fitness_centre", "name": "Les cercles de la forme"}}, {"type": "node", "id": 5642308122, "lat": 48.8498359, "lon": 2.2930014, "tags": {"brand": "Neoness", "brand:wikidata": "Q86668014", "leisure": "fitness_centre", "name": "Neoness"}}, {"type": "node", "id": 5768515044, "lat": 48.8253829, "lon": 2.3655393, "tags": {"contact:city": "Paris", "contact:housenumber": "103", "contact:postcode": "75013", "contact:street": "Rue de Tolbiac", "leisure": "fitness_centre", "name": "CrossFit Rive Gauche", "sport": "crossfit"}}, {"type": "node", "id": 5769784154, "lat": 48.8796651, "lon": 2.3293373, "tags": {"addr:city": "Paris", "addr:housenumber": "44", "addr:street": "Rue de Clichy", "branch": "Paris Saint Lazare", "brand": "Neoness", "brand:wikidata": "Q86668014", "leisure": "fitness_centre", "name": "Neoness", "opening_hours": "Mo-Fr 07:00-22:00; Sa 09:00-19:00; Su 09:00-17:00", "sport": "fitness", "website": "https://www.neoness.fr/clubs/paris/paris-saint-lazare", "wheelchair": "yes"}}, {"type": "node", "id": 5794128478, "lat": 48.8615523, "lon": 2.3525358, "tags": {"check_date": "2023-04-10", "leisure": "fitness_centre", "name": "Cercles de la forme", "opening_hours": "Mo-Fr 07:00-22:00; Sa,Su 09:00-19:00", "phone": "+33142772171", "sport": "fitness", "website": "https://www.cerclesdelaforme.com/salle-de-sport/beaubourg/", "wheelchair": "limited"}}, {"type": "node", "id": 5856400138, "lat": 48.846424, "lon": 2.3804172, "tags": {"addr:city": "Paris", "addr:housenumber": "60", "addr:postcode": "75012", "addr:street": "Boulevard Diderot", "check_date": "2024-07-13", "leisure": "fitness_centre", "name": "Fitness Park", "opening_hours": "Mo-Fr 08:30-21:30; Sa 09:00-19:00; Su 10:00-16:00", "sport": "weightlifting"}}, {"type": "node", "id": 5860888385, "lat": 48.8318308, "lon": 2.2522602}, {"type": "node", "id": 5896161885, "lat": 48.8384055, "lon": 2.2606915, "tags": {"leisure": "fitness_centre", "name": "Aqua Loft", "opening_hours": "Mo-Th 08:30-22:00; Fr 09:00-21:00; Sa 09:00-18:00; Su 10:00-18:00", "source": "survey 2018"}}, {"type": "node", "id": 5915889005, "lat": 48.84443, "lon": 2.2985311, "tags": {"leisure": "fitness_centre", "name": "Le Club"}}, {"type": "node", "id": 5926021821, "lat": 48.8515214, "lon": 2.3461719, "tags": {"addr:housenumber": "21", "addr:street": "Rue Saint-Jacques", "leisure": "fitness_centre", "name": "Rasa Yoga Rive Gauche", "sport": "yoga", "website": "https://www.rasa-yogarivegauche.com/"}}, {"type": "node", "id": 5926021824, "lat": 48.8717487, "lon": 2.3606113, "tags": {"addr:city": "Paris", "addr:housenumber": "12", "addr:postcode": "75010", "addr:street": "Rue Lucien Sampaix", "leisure": "fitness_centre", "name": "CanalCentral", "opening_hours": "Mo-We 10:00-14:00,17:30-20:30; Sa 10:00-15:00", "phone": "+33 1 78 01 07 30", "sport": "fitness;yoga;gymnastics;exercise;exercice;pilates;boxing", "website": "https://www.canalcentral.fr/"}}, {"type": "node", "id": 5932494586, "lat": 48.8834405, "lon": 2.3345774, "tags": {"addr:city": "Paris", "addr:housenumber": "62", "addr:postcode": "75018", "addr:street": "Boulevard de Clichy", "check_date": "2023-11-27", "description": "Club de boxe", "leisure": "fitness_centre", "name": "VPunch Gym"}}, {"type": "node", "id": 5934193657, "lat": 48.8650381, "lon": 2.3719273, "tags": {"leisure": "fitness_centre", "name": "Athletic Planet", "wheelchair": "no"}}, {"type": "node", "id": 6057488485, "lat": 48.8348301, "lon": 2.2519043, "tags": {"leisure": "fitness_centre", "name": "Qee", "phone": "+33 1 84 19 49 49"}}, {"type": "node", "id": 6278258514, "lat": 48.8295159, "lon": 2.3258589, "tags": {"brand": "Neoness", "brand:wikidata": "Q86668014", "leisure": "fitness_centre", "name": "Neoness", "opening_hours": "Tu-Fr 07:00-22:00; Sa 09:00-19:00; Su 09:00-17:00; PH \"Voir neoness.fr\"", "website": "https://www.neoness.fr/", "wheelchair": "yes"}}, {"type": "node", "id": 6438353685, "lat": 48.8345476, "lon": 2.3022899, "tags": {"check_date:opening_hours": "2024-03-11", "leisure": "fitness_centre", "name": "Gym flash", "opening_hours": "Mo-Su 06:00-23:00", "source": "survey 2019"}}, {"type": "node", "id": 6447595322, "lat": 48.81588, "lon": 2.3272556, "tags": {"leisure": "fitness_centre", "name": "Body Om", "opening_hours": "Mo-Sa 10:00-20:00", "phone": "+33 1 85 76 50 22", "sport": "yoga", "website": "https://www.bodyom.fr/", "wheelchair": "yes"}}, {"type": "node", "id": 6487359885, "lat": 48.8791831, "lon": 2.349764, "tags": {"addr:housenumber": "14", "addr:postcode": "75010", "addr:street": "Rue d'Abbeville", "leisure": "fitness_centre", "name": "La Belle Equipe: Boxe, Coaching and other things"}}, {"type": "node", "id": 6487459286, "lat": 48.8897582, "lon": 2.3689781, "tags": {"leisure": "fitness_centre", "name": "Magic Form", "opening_hours": "Mo-Fr 08:00-22:00; Sa 09:00-19:00; Su 09:00-18:00", "website": "https://magic-form.fr/"}}, {"type": "node", "id": 6536444888, "lat": 48.8831202, "lon": 2.3042736, "tags": {"addr:housenumber": "7", "addr:postcode": "75017", "addr:street": "Rue Meissonier", "leisure": "fitness_centre", "name": "L'Espace Bikram Paris", "opening_hours": "Mo-Fr 06:30-22:00; Sa-Su 09:30-20:00", "phone": "+33 1 78 76 67 67", "website": "https://lespacebikramparis.com/"}}, {"type": "node", "id": 6698958368, "lat": 48.8163036, "lon": 2.2913039, "tags": {"email": "contact-malakoff@gigafit.fr", "leisure": "fitness_centre", "name": "Gigafit", "website": "https://gigafit.fr/club/malakoff"}}, {"type": "node", "id": 6896239286, "lat": 48.8247374, "lon": 2.3481177, "tags": {"addr:housenumber": "13", "addr:street": "Rue Guyton de Morveau", "check_date:opening_hours": "2024-03-27", "leisure": "fitness_centre", "name": "Les Cercles de la Forme", "opening_hours": "Mo-Fr 07:00-22:30; Sa,Su 09:00-19:00", "phone": "+33 1 45 65 90 90", "website": "https://www.cerclesdelaforme.com/salle-de-sport/cercle-tolbiac-13eme/", "wheelchair": "limited"}}, {"type": "node", "id": 6909677610, "lat": 48.8774702, "lon": 2.3284285, "tags": {"addr:city": "Paris", "addr:housenumber": "24", "addr:postcode": "75009", "addr:street": "Rue de Londres", "description": "CrossFit Louvre 3 est une salle de CrossFit \u00e0 Paris mais surtout un lieu convivial pour vous entra\u00eener et passer la meilleure heure de votre journ\u00e9e", "leisure": "fitness_centre", "mobile": "+33 6 38 15 46 26", "name": "CrossFit Louvre III", "opening_hours": "Mo-Fr 06:30-21:30; Sa 10:00-17:00; Su 10:00-16:00", "phone": "+33 1 48 74 87 06", "sport": "crossfit;gym;weightlifting", "website": "https://crossfitlouvre3.com/"}}, {"type": "node", "id": 6918929306, "lat": 48.8293119, "lon": 2.3459588, "tags": {"check_date": "2024-03-21", "leisure": "fitness_centre", "name": "Neoness", "opening_hours": "Mo-Fr 07:00-22:00; Sa 09:00-19:00; Su 09:00-17:00"}}, {"type": "node", "id": 6996840912, "lat": 48.8324285, "lon": 2.3354551, "tags": {"contact:city": "Paris", "contact:housenumber": "10", "contact:postcode": "75014", "contact:street": "Rue de la Tombe Issoire", "leisure": "fitness_centre", "name": "BodyHit", "opening_hours": "Mo-Fr 08:00-14:00,17:00-21:00; Sa 09:30-13:00,14:00-19:00", "wheelchair": "limited"}}, {"type": "node", "id": 6996840913, "lat": 48.8326099, "lon": 2.3358363, "tags": {"check_date:opening_hours": "2024-09-14", "contact:city": "Paris", "contact:housenumber": "7", "contact:postcode": "75014", "contact:street": "Rue de la Tombe Issoire", "leisure": "fitness_centre", "name": "Breath And Core", "opening_hours:signed": "no", "wheelchair": "limited"}}, {"type": "node", "id": 7038322685, "lat": 48.8706557, "lon": 2.3279311, "tags": {"branch": "Paris Madeleine", "brand": "Neoness", "brand:wikidata": "Q86668014", "check_date:opening_hours": "2024-05-21", "contact:city": "Paris", "contact:housenumber": "7", "contact:phone": "+33 1 79 35 33 66", "contact:postcode": "75009", "contact:street": "Rue de Caumartin", "internet_access": "wlan", "leisure": "fitness_centre", "name": "Neoness", "opening_hours": "Mo-Fr 07:00-22:00; Sa 09:00-22:00; Su 09:00-17:00"}}, {"type": "node", "id": 7038322785, "lat": 48.8683735, "lon": 2.3410595, "tags": {"branch": "Bourse Op\u00e9ra", "brand": "Neoness", "brand:wikidata": "Q86668014", "contact:city": "Paris", "contact:housenumber": "21", "contact:phone": "+33 1 83 79 97 50", "contact:postcode": "75002", "contact:street": "Rue de la Banque", "contact:website": "http://www.neoness.fr", "internet_access": "wlan", "leisure": "fitness_centre", "name": "Neoness", "opening_hours": "Mo-Fr 07:00-22:00; Sa 09:00-19:00; Su 09:00-17:00"}}, {"type": "node", "id": 7058403767, "lat": 48.823989, "lon": 2.3454034, "tags": {"brand": "L'Appart Fitness", "brand:wikidata": "Q120734255", "leisure": "fitness_centre", "name": "L'Appart Fitness", "opening_hours": "Mo-Th 09:00-21:00; Fr 10:00-20:00; Su 09:00-13:00; Sa 09:00-13:00,14:00-17:00", "sport": "fitness", "website": "https://www.l-appart.net/clubs/paris-13-charlety-75013"}}, {"type": "node", "id": 7200618717, "lat": 48.8423448, "lon": 2.3402734, "tags": {"leisure": "fitness_centre", "name": "Gymnase Lavoisier"}}, {"type": "node", "id": 7288923085, "lat": 48.831734, "lon": 2.3390731, "tags": {"check_date": "2024-09-14", "leisure": "fitness_centre", "name": "Keep cool", "opening_hours": "Mo-Su 06:00-23:00", "wheelchair": "yes"}}, {"type": "node", "id": 7472967287, "lat": 48.8356582, "lon": 2.3247668, "tags": {"check_date": "2023-05-06", "leisure": "fitness_centre", "name": "Le temps du yoga", "sport": "yoga"}}, {"type": "node", "id": 7527295256, "lat": 48.8548085, "lon": 2.3378504, "tags": {"contact:mobile": "+33 6 75 31 82 79", "contact:phone": "+33 1 83 06 47 65", "leisure": "fitness_centre", "name": "Elite Stimulation", "opening_hours": "07:00-21:00", "website": "https://www.elite-stimulation.com"}}, {"type": "node", "id": 7724323985, "lat": 48.8674661, "lon": 2.3334545, "tags": {"addr:city": "Paris", "addr:housenumber": "31", "addr:postcode": "75001", "addr:street": "Avenue de l'Op\u00e9ra", "check_date": "2023-09-21", "description": "CrossFit Louvre 1 une box de CrossFit depuis 2012 avec une \u00c9quipe de Coachs Certifi\u00e9s et Exp\u00e9riment\u00e9s", "leisure": "fitness_centre", "mobile": "+33 6 20 18 18 11", "name": "Reebok CrossFit Louvre", "opening_hours": "Mo-Fr 06:30-22:00; Sa-Su 10:00-18:00", "phone": "+33 9 62 52 37 66", "sport": "crossfit;gym;weightlifting", "website": "https://crossfitlouvre.com/"}}, {"type": "node", "id": 7753007583, "lat": 48.8882723, "lon": 2.3192679, "tags": {"leisure": "fitness_centre", "name": "Qee yoga pilate", "sport": "multi"}}, {"type": "node", "id": 7855502855, "lat": 48.8651267, "lon": 2.3499372, "tags": {"brand": "Neoness", "brand:wikidata": "Q86668014", "check_date": "2024-08-18", "leisure": "fitness_centre", "name": "Neoness", "opening_hours": "Mo-Fr 07:00-22:00; Sa 09:00-19:00; Su 09:00-17:00", "website": "https://www.neoness.fr/clubs/paris-idf/paris-chatelet-montorgueil", "wheelchair": "no"}}, {"type": "node", "id": 7989324585, "lat": 48.9011368, "lon": 2.3010518, "tags": {"brand": "L'Orange Bleue", "leisure": "fitness_centre", "name": "L'Orange Bleue", "opening_hours": "06:00-23:00", "phone": "+33 1 47 30 10 88", "survey:date": "2020-10-08", "website": "https://lorangebleue.fr"}}, {"type": "node", "id": 8129553227, "lat": 48.8246887, "lon": 2.2928002, "tags": {"addr:city": "Vanves", "addr:housenumber": "12", "addr:postcode": "92170", "addr:street": "Avenue Pasteur", "brand": "Fitness Park", "brand:wikidata": "Q102351191", "leisure": "fitness_centre", "name": "Fitness Park", "opening_hours:covid19": "off", "phone": "+33 6 19 87 42 00", "sport": "fitness", "website": "https://www.fitnesspark.fr/"}}, {"type": "node", "id": 8129796300, "lat": 48.8498684, "lon": 2.2986866, "tags": {"contact:city": "Paris", "contact:housenumber": "62", "contact:phone": "+33 1 53 58 38 00", "contact:postcode": "75015", "contact:street": "Avenue de La Motte-Picquet", "contact:website": "https://ritm-sport.fr/", "leisure": "fitness_centre", "name": "Ritm - La Motte Picquet", "official_name": "Ritm La Motte-Picquet - Salle De Sport Paris 15\u00c8me", "opening_hours": "Mo-Fr 07:00-22:00; Sa-Su 09:00-19:00", "phone": "+33 1 53 58 38 00", "ref:FR:SIRET": "43269652400151", "sport": "fitness"}}, {"type": "node", "id": 8197455029, "lat": 48.8885281, "lon": 2.315286, "tags": {"brand": "Fitness Park", "brand:wikidata": "Q102351191", "check_date:opening_hours": "2024-04-12", "leisure": "fitness_centre", "name": "Fitness Park", "opening_hours": "Mo-Su 06:00-23:00", "operator": "Moving", "sport": "fitness"}}, {"type": "node", "id": 8295997452, "lat": 48.8519958, "lon": 2.3634003, "tags": {"brand": "KeepCool", "brand:wikidata": "Q100146251", "leisure": "fitness_centre", "name": "KeepCool", "website": "https://www.keepcool.fr/s/salle-de-sport-paris-4-bastille"}}, {"type": "node", "id": 8384923829, "lat": 48.8672798, "lon": 2.3724856, "tags": {"check_date": "2024-03-04", "leisure": "fitness_centre", "name": "Gym Studio", "website": "https://www.gymstudio.fr/zumba-paris-parmentier.html"}}, {"type": "node", "id": 8439390596, "lat": 48.8464038, "lon": 2.2943147, "tags": {"branch": "Paris Th\u00e9\u00e2tre", "brand": "Fitness Park", "brand:wikidata": "Q102351191", "leisure": "fitness_centre", "name": "Fitness Park", "opening_hours": "PH,Mo-Su 08:00-22:00", "website": "https://www.fitnesspark.fr/club/paris-theatre/"}}, {"type": "node", "id": 8440760064, "lat": 48.8835112, "lon": 2.329974, "tags": {"check_date": "2023-05-25", "leisure": "fitness_centre", "name": "Parenth\u00e8se Enchant\u00e9e", "sport": "yoga"}}, {"type": "node", "id": 8450702349, "lat": 48.848089, "lon": 2.3534359, "tags": {"amenity": "cafe", "contact:housenumber": "27 bis", "contact:street": "Rue du Cardinal Lemoine", "leisure": "fitness_centre", "name": "Storm cycling club", "sport": "cycling", "website": "https://www.stormcyclingclub.com"}}, {"type": "node", "id": 8623309408, "lat": 48.8683462, "lon": 2.3808589, "tags": {"addr:city": "Paris", "addr:housenumber": "25", "addr:postcode": "75011", "addr:street": "Boulevard de Belleville", "brand": "Neoness", "brand:wikidata": "Q86668014", "check_date": "2023-06-01", "leisure": "fitness_centre", "name": "Neoness", "opening_hours": "Mo-Fr 07:00-22:00; Sa 09:00-19:00; Su 09:00-17:00"}}, {"type": "node", "id": 8640149094, "lat": 48.8739425, "lon": 2.3650881, "tags": {"addr:housenumber": "13", "addr:postcode": "75010", "addr:street": "Rue de la Grange aux Belles", "check_date": "2024-11-08", "description": "Cr\u00e9\u00e9 en 2008, le centre sportif Battling Club se situe dans le pr\u00e8s du canal saint martin.", "leisure": "fitness_centre", "name": "Battling Club", "opening_hours": "Mo-Tu 12:00-15:00, 17:00-21:30; Th-Fr 12:00-15:00, 17:00-21:30", "phone": "+33 1 42 01 24 12", "sport": "boxing;cross_training;yoga", "website": "https://www.battlingclubparis10.fr/"}}, {"type": "node", "id": 8648602257, "lat": 48.8685269, "lon": 2.3700598, "tags": {"addr:housenumber": "17", "addr:street": "Rue de la Fontaine au Roi", "check_date": "2024-12-18", "contact:email": "contact@satya-yoga.fr", "contact:phone": "+33 6 61 22 00 52", "fee": "yes", "leisure": "fitness_centre", "name": "Satya Yoga", "sport": "yoga", "website": "https://satya-yoga.fr"}}, {"type": "node", "id": 8662577766, "lat": 48.8850414, "lon": 2.3245003, "tags": {"leisure": "fitness_centre", "name": "Studio aopa", "phone": "+33 6 99 38 16 01", "sport": "yoga;pilates", "website": "https://www.studioaopa.com"}}, {"type": "node", "id": 8706087753, "lat": 48.8420028, "lon": 2.3175387, "tags": {"brand": "Basic-Fit", "brand:wikidata": "Q40165577", "brand:wikipedia": "nl:Basic-Fit", "leisure": "fitness_centre", "name": "Basic-Fit"}}, {"type": "node", "id": 8756522928, "lat": 48.8668023, "lon": 2.3728207, "tags": {"check_date": "2022-07-19", "leisure": "fitness_centre", "name": "dynamo", "sport": "cycling", "website": "https://dynamo-cycling.com/", "wheelchair": "no"}}, {"type": "node", "id": 8889320852, "lat": 48.8643768, "lon": 2.3529876, "tags": {"leisure": "fitness_centre", "name": "Fit Success", "wheelchair": "yes"}}, {"type": "node", "id": 8961442527, "lat": 48.8841211, "lon": 2.3376108, "tags": {"addr:city": "Paris", "addr:housenumber": "22", "addr:postcode": "75018", "addr:street": "Rue Andr\u00e9 Antoine", "leisure": "fitness_centre", "name": "Club Parisien de Self D\u00e9fense"}}, {"type": "node", "id": 9038726520, "lat": 48.8992246, "lon": 2.3813295, "tags": {"leisure": "fitness_centre", "level": "0", "name": "Apollo Sporting Club", "sport": "boxing", "website": "https://apollosportingclub.com/"}}, {"type": "node", "id": 9081610834, "lat": 48.8389771, "lon": 2.3594306, "tags": {"leisure": "fitness_centre", "name": "Clinique du Sport", "operator": "Ramsay sant\u00e9", "survey:date": "2021-12-23"}}, {"type": "node", "id": 9082433478, "lat": 48.8738643, "lon": 2.320987, "tags": {"leisure": "fitness_centre", "name": "Sport Impulse"}}, {"type": "node", "id": 9291170345, "lat": 48.8983828, "lon": 2.3767371, "tags": {"addr:city": "Paris", "addr:postcode": "75019", "addr:street": "Boulevard Macdonald", "brand": "Basic-Fit", "brand:wikidata": "Q40165577", "brand:wikipedia": "nl:Basic-Fit", "check_date": "2024-11-13", "leisure": "fitness_centre", "name": "Basic-Fit", "opening_hours": "Mo-Fr 06:00-22:30; Sa-Su 09:00-19:00", "website": "https://www.basic-fit.com/fr-fr/salle-de-sport/basic-fit-paris-boulevard-macdonald-acb9c312e112462b8a32e9a327e5599c.html"}}, {"type": "node", "id": 9403724912, "lat": 48.8626335, "lon": 2.3762749, "tags": {"check_date": "2023-04-02", "leisure": "fitness_centre", "name": "Studio 45", "website": "https://www.sportclubstudio45.com/"}}, {"type": "node", "id": 9461541422, "lat": 48.8552326, "lon": 2.3840505, "tags": {"addr:city": "Paris", "addr:housenumber": "172", "addr:postcode": "75011", "addr:street": "Boulevard Voltaire", "email": "parisvoltaire@onair-fitness.fr", "leisure": "fitness_centre", "name": "On Air Paris Voltaire", "opening_hours": "Mo-Su 06:00-23:00", "phone": "+33 9 50 98 38 78", "website": "https://onair-fitness.fr/club/parisvoltaire/"}}, {"type": "node", "id": 9465981417, "lat": 48.8455474, "lon": 2.3812619, "tags": {"leisure": "fitness_centre", "name": "Basic Fit"}}, {"type": "node", "id": 9538439773, "lat": 48.8924001, "lon": 2.3300553, "tags": {"addr:city": "Paris", "addr:housenumber": "237", "addr:postcode": "75018", "addr:street": "Rue Marcadet", "brand": "KeepCool", "brand:wikidata": "Q100146251", "check_date": "2024-10-25", "leisure": "fitness_centre", "name": "KeepCool", "opening_hours": "PH,Mo-Su 06:00-23:00"}}, {"type": "node", "id": 9556283217, "lat": 48.8548674, "lon": 2.3705923, "tags": {"leisure": "fitness_centre", "name": "Body Hit", "opening_hours": "Mo-Fr 08:00-14:00,17:00-21:00, Sa 09:00-13:00,14:00-18:00", "website": "https://www.bodyhit.fr"}}, {"type": "node", "id": 9571461320, "lat": 48.8716605, "lon": 2.3569628, "tags": {"amenity": "cafe", "check_date": "2024-06-28", "leisure": "fitness_centre", "name": "Maparenth\u00e8se", "sport": "yoga"}}, {"type": "node", "id": 9581442542, "lat": 48.8715477, "lon": 2.3552585, "tags": {"addr:housenumber": "37", "addr:street": "Boulevard de Strasbourg", "brand": "Basic-Fit", "brand:wikidata": "Q40165577", "leisure": "fitness_centre", "name": "Basic-Fit", "opening_hours": "Mo-Fr 06:00-22:30; Sa,Su 09:00-19:00"}}, {"type": "node", "id": 9659990028, "lat": 48.8308328, "lon": 2.375945, "tags": {"brand": "Neoness", "leisure": "fitness_centre", "level": "1", "name": "Neoness", "opening_hours": "Mo-Fr 07:00-22:00; Sa 09:00-19:00; Su 09:00-17:00"}}, {"type": "node", "id": 9675667681, "lat": 48.867148, "lon": 2.3668684, "tags": {"branch": "Paris R\u00e9publique", "brand": "Neoness", "brand:wikidata": "Q86668014", "check_date": "2024-11-11", "check_date:opening_hours": "2024-11-11", "fee": "yes", "internet_access": "no", "leisure": "fitness_centre", "name": "Neoness", "opening_hours": "Mo-Su 06:00-23:00"}}, {"type": "node", "id": 9748845447, "lat": 48.8565562, "lon": 2.2799467, "tags": {"beauty": "tanning", "branch": "Paris Passy", "brand": "Smart Body", "check_date:opening_hours": "2024-04-01", "contact:city": "Paris", "contact:housenumber": "1", "contact:phone": "+33 9 73 23 95 15", "contact:postcode": "75016", "contact:street": "Rue Jean Bologne", "contact:website": "https://www.smart-body.fr/centre-aquabike-paris-16", "leisure": "fitness_centre", "name": "Smart Body", "opening_hours": "Mo-Sa 09:00-20:00; Su 10:00-18:00", "sauna": "infrared", "sport": "aquabike;vacu-running"}}, {"type": "node", "id": 9787603875, "lat": 48.8147171, "lon": 2.3786334, "tags": {"check_date": "2022-06-01", "leisure": "fitness_centre", "name": "Hot yoga", "sport": "yoga"}}, {"type": "node", "id": 9796100975, "lat": 48.8550961, "lon": 2.3673442, "tags": {"addr:city": "Paris", "addr:housenumber": "26", "addr:postcode": "75004", "addr:street": "Rue des Tournelles", "email": "contact@nayastudio.paris", "leisure": "fitness_centre", "name": "Naya", "sport": "yoga", "website": "https://nayastudio.paris/"}}, {"type": "node", "id": 9811885778, "lat": 48.8928314, "lon": 2.2977128, "tags": {"addr:city": "Levallois-Perret", "addr:housenumber": "31", "addr:postcode": "92300", "addr:street": "Rue d'Alsace", "leisure": "fitness_centre", "name": "JOHN REED Paris So Ouest", "opening_hours": "Mo-Su 09:00-21:00", "sport": "fitness", "website": "https://johnreed.fitness/fr/club-paris-so-ouest"}}, {"type": "node", "id": 9861508350, "lat": 48.8282517, "lon": 2.3821848, "tags": {"addr:city": "Paris", "addr:housenumber": "1", "addr:postcode": "75013", "addr:street": "Rue Elsa Morante", "check_date": "2024-09-17", "contact:email": "contact@monstade.fr", "contact:instagram": "https://www.instagram.com/mon_stade/", "facebook": "https://www.facebook.com/monstade75013", "leisure": "fitness_centre", "name": "Mon Stade", "opening_hours": "Mo-Fr 08:00-21:15; Sa 09:00-14:00", "phone": "+33 1 44 23 30 00", "safety:mask:covid19": "yes", "twitter": "https://twitter.com/mon_stade", "website": "https://www.monstade.fr", "wheelchair": "yes"}}, {"type": "node", "id": 9864287771, "lat": 48.8794399, "lon": 2.3364387, "tags": {"leisure": "fitness_centre", "name": "Nova Fitness"}}, {"type": "node", "id": 9898423315, "lat": 48.8491974, "lon": 2.3731857, "tags": {"leisure": "fitness_centre"}}, {"type": "node", "id": 9922296589, "lat": 48.8465144, "lon": 2.3209839, "tags": {"leisure": "fitness_centre", "name": "Tigre Yoga"}}, {"type": "node", "id": 9946861218, "lat": 48.871182, "lon": 2.304417, "tags": {"contact:city": "Paris", "contact:housenumber": "76", "contact:phone": "+33 1 80 49 04 96", "contact:postcode": "75008", "contact:street": "Av. Des Champs-\u00c9lys\u00e9es", "contact:website": "https://ritm-sport.fr/", "leisure": "fitness_centre", "name": "Ritm - Champs Elys\u00e9es", "official_name": "Ritm Champs Elys\u00e9es - Salle De Sport Paris 8\u00c8me", "opening_hours": "Mo-Fr 07:00-22:00; Sa-Su 09:00-19:00", "ref:FR:SIRET": "43269652400185"}}, {"type": "node", "id": 9946894617, "lat": 48.8507325, "lon": 2.2710327, "tags": {"contact:city": "Paris", "contact:housenumber": "56", "contact:phone": "+33 1 55 74 74 60", "contact:postcode": "75016", "contact:street": "Rue Jean de La Fontaine", "contact:website": "https://ritm-sport.fr/", "leisure": "fitness_centre", "name": "Ritm - La Fontaine", "official_name": "Ritm La Fontaine - Salle De Sport Paris 16\u00c8me", "opening_hours": "Mo-Fr 07:00-22:00; Sa-Su 09:00-19:00", "ref:FR:SIRET": "43269652400078"}}, {"type": "node", "id": 9968290019, "lat": 48.8595354, "lon": 2.3759612, "tags": {"check_date": "2023-08-27", "leisure": "fitness_centre", "name": "The Well", "sport": "yoga"}}, {"type": "node", "id": 9968346317, "lat": 48.8585548, "lon": 2.3733717, "tags": {"addr:city": "Paris", "addr:housenumber": "30", "addr:postcode": "75011", "addr:street": "Rue du Chemin Vert", "check_date": "2023-09-20", "description": "Fond\u00e9 en 2014, R2 Training c'est aujourd'hui 2 sites \u00e0 Paris et 3 sites \u00e0 Londres.", "leisure": "fitness_centre", "mobile": "+33 6 62 50 59 33", "name": "R2 Training Bastille CrossFit", "opening_hours": "Mo-Fr 09:00-21:00; Sa 09:00-16:00; Su 10:00-13:00", "phone": "+33 1 48 07 36 44", "sport": "crossfit;gym;weightlifting", "website": "https://www.r2training.fr/"}}, {"type": "node", "id": 9976500453, "lat": 48.8732765, "lon": 2.3093537, "tags": {"leisure": "fitness_centre", "name": "C White"}}, {"type": "node", "id": 9977851268, "lat": 48.8435623, "lon": 2.3169159, "tags": {"leisure": "fitness_centre", "name": "Espace Falgui\u00e8re", "sport": "yoga"}}, {"type": "node", "id": 9996025709, "lat": 48.8625008, "lon": 2.3801487, "tags": {"check_date:opening_hours": "2022-10-03", "leisure": "fitness_centre", "name": "Paris coach", "opening_hours:signed": "no", "website": "https://pariscoach.fr"}}, {"type": "node", "id": 10016468817, "lat": 48.8967739, "lon": 2.3720833, "tags": {"addr:housenumber": "28", "addr:postcode": "75019", "addr:street": "All\u00e9e Rose Dieng-Kuntz", "contact:facebook": "UCPA-Sport-Station-Paris-110361908206755", "contact:instagram": "ucpa_sport_station_paris", "email": "hello@ucpasportstation-paris.com", "internet_access": "wlan", "leisure": "fitness_centre", "name": "UCPA Sport Station Hostel", "name:en": "UCPA Sport Station Hostel", "name:fr": "UCPA Sport Station Hostel", "opening_hours": "Mo-Su 07:00-23:00", "operator": "UCPA", "phone": "09 75 18 11 80", "website": "https://www.ucpa.com/sport-station/paris-19"}}, {"type": "node", "id": 10019649517, "lat": 48.8966229, "lon": 2.3273509, "tags": {"addr:housenumber": "22", "addr:postcode": "75017", "addr:street": "Rue Jean Leclaire", "leisure": "fitness_centre", "name": "Kyudo Art et Pratique", "opening_hours": "Sa 09:00-11:00, 12:00-14:00", "phone": "+33 6 19 37 75 00", "website": "https://kyudo-a-paris.fr"}}, {"type": "node", "id": 10048388654, "lat": 48.8648382, "lon": 2.344582}, {"type": "node", "id": 10048388655, "lat": 48.8647603, "lon": 2.3445399}, {"type": "node", "id": 10048388656, "lat": 48.8647434, "lon": 2.3446137}, {"type": "node", "id": 10048388657, "lat": 48.8648216, "lon": 2.3446519}, {"type": "node", "id": 10049022963, "lat": 48.8776552, "lon": 2.2901526, "tags": {"leisure": "fitness_centre", "name": "Gotham"}}, {"type": "node", "id": 10049022998, "lat": 48.8772298, "lon": 2.2926002, "tags": {"leisure": "fitness_centre", "name": "One Trainer"}}, {"type": "node", "id": 10084578069, "lat": 48.8339447, "lon": 2.3669142, "tags": {"addr:city": "Paris", "addr:housenumber": "87", "addr:postcode": "75013", "addr:street": "Boulevard Vincent Auriol", "check_date": "2023-09-22", "description": "Nous proposons de vous offrir une exp\u00e9rience totalement diff\u00e9rente de toutes celles que vous avez d\u00e9j\u00e0 pu vivre dans les salles de sport que vous avez connues jusqu\u2019\u00e0 maintenant.", "email": "hello@crossfitrebirth.fr", "fee": "yes", "leisure": "fitness_centre", "name": "Crossfit Rebirth", "opening_hours": "Mo-Fr 07:00-21:00; Sa 10:00-17:00; Su 10:00-13:00", "phone": "+33 1 53 46 95 81", "sport": "crossfit;gymnastics;weightlifting", "website": "https://www.crossfitrebirth.fr/"}}, {"type": "node", "id": 10089939213, "lat": 48.8682172, "lon": 2.3466852, "tags": {"brand": "KeepCool", "leisure": "fitness_centre", "name": "KeepCool", "opening_hours": "06:00-23:00"}}, {"type": "node", "id": 10104553841, "lat": 48.8364602, "lon": 2.298644, "tags": {"leisure": "fitness_centre", "name": "Brooklyn Fitboxing", "website": "https://www.brooklynfitboxing.com"}}, {"type": "node", "id": 10118599774, "lat": 48.8407348, "lon": 2.3327071, "tags": {"addr:housenumber": "140", "addr:postcode": "75014", "addr:street": "Boulevard du Montparnasse", "branch": "Paris Boulevard du Montparnasse", "brand": "Basic-Fit", "brand:wikidata": "Q40165577", "leisure": "fitness_centre", "name": "Basic-Fit", "opening_hours": "Mo-Fr 06:00-22:30; Sa-Su 09:00-19:00", "phone": "0033366333344", "website": "https://basic-fit.com"}}, {"type": "node", "id": 10120618611, "lat": 48.8358357, "lon": 2.3844052, "tags": {"check_date:opening_hours": "2024-04-10", "leisure": "fitness_centre", "name": "Refill", "opening_hours:signed": "no"}}, {"type": "node", "id": 10129189513, "lat": 48.82945, "lon": 2.3756437, "tags": {"brand": "Basic-Fit", "brand:wikidata": "Q40165577", "leisure": "fitness_centre", "name": "Basic-Fit", "opening_hours": "Mo-Fr 06:00-22:30; Sa-Su 09:00-19:00; PH 09:00-16:00"}}, {"type": "node", "id": 10129777482, "lat": 48.8253885, "lon": 2.2753874, "tags": {"leisure": "fitness_centre", "name": "One Fitness Club"}}, {"type": "node", "id": 10130698193, "lat": 48.8498919, "lon": 2.3473911, "tags": {"brand": "KeepCool", "brand:wikidata": "Q100146251", "leisure": "fitness_centre", "name": "KeepCool"}}, {"type": "node", "id": 10130786581, "lat": 48.8385349, "lon": 2.3218377, "tags": {"leisure": "fitness_centre", "name": "John Reed", "sport": "fitness"}}, {"type": "node", "id": 10181547549, "lat": 48.8354796, "lon": 2.2947571, "tags": {"leisure": "fitness_centre", "name": "H Tec Fit", "opening_hours": "Mo-Fr 08:30-14:00,17:00-20:00, Sa 09:00-13:00", "sport": "fitness", "website": "https://www.htecfit.com"}}, {"type": "node", "id": 10207241614, "lat": 48.9036004, "lon": 2.316738, "tags": {"brand": "Basic-Fit", "brand:wikidata": "Q40165577", "leisure": "fitness_centre", "name": "Basic-Fit"}}, {"type": "node", "id": 10227768518, "lat": 48.879783, "lon": 2.298501, "tags": {"contact:city": "Paris", "contact:housenumber": "34", "contact:phone": "+33 6 44 18 90 75", "contact:postcode": "75017", "contact:street": "Rue Poncelet", "contact:website": "https://bodyhit.fr/bodyhit-paris-17-ternes/", "leisure": "fitness_centre", "name": "Bodyhit", "official_name": "Bodyhit Paris 17 Ternes Electrostimulation", "opening_hours": "Mo-Fr 08:00-14:00, 17:00-21:00; Sa-Su 09:00-14:00"}}, {"type": "node", "id": 10227786317, "lat": 48.8623246, "lon": 2.3555061, "tags": {"contact:city": "Paris", "contact:housenumber": "21", "contact:phone": "+33 6 44 18 90 76", "contact:postcode": "75003", "contact:street": "Rue Michel Le Comte", "contact:website": "https://bodyhit.fr/bodyhit-club-paris-3-chatelet-marais/", "leisure": "fitness_centre", "name": "Bodyhit", "official_name": "Bodyhit Paris 3 Ch\u00e2telet / Marais", "opening_hours": "Mo-Fr 08:00-14:00, 16:30-21:00; Sa 09:00-15:00", "wheelchair": "no"}}, {"type": "node", "id": 10227788117, "lat": 48.8590776, "lon": 2.2744213, "tags": {"contact:city": "Paris", "contact:housenumber": "9", "contact:phone": "+33 7 88 25 31 98", "contact:postcode": "75116", "contact:street": "Rue Fran\u00e7ois Ponsard", "contact:website": "https://bodyhit.fr/bodyhit-club-paris-16-la-muette/", "leisure": "fitness_centre", "name": "Bodyhit", "official_name": "Bodyhit Paris 16 La Muette Electrostimulation", "opening_hours": "Mo 08:00-14:00, 16:00-20:00; Tu-We 08:00-14:00, 17:00-21:00; Th 08:00-14:00, 16:00-20:00; Fr 08:00-14:00, 17:00-21:00; Sa 10:00-13:00, 14:00-17:00"}}, {"type": "node", "id": 10227795322, "lat": 48.8761409, "lon": 2.3342381, "tags": {"contact:city": "Paris", "contact:housenumber": "49", "contact:phone": "+33 6 44 18 90 81", "contact:postcode": "75009", "contact:street": "Rue de Ch\u00e2teaudun", "contact:website": "https://bodyhit.fr/bodyhit-club-paris-9-saint-lazare/", "leisure": "fitness_centre", "name": "Bodyhit", "official_name": "Bodyhit Paris 9 Saint-Lazare Electrostimulation", "opening_hours": "Mo-Fr 08:00-14:00, 17:00-21:00; Sa 09:00-18:30"}}, {"type": "node", "id": 10227795323, "lat": 48.8827923, "lon": 2.2732713, "tags": {"contact:city": "Neuilly-sur-Seine", "contact:housenumber": "28", "contact:phone": "+33 7 88 25 32 16", "contact:postcode": "92200", "contact:street": "Rue D'orl\u00e9ans", "leisure": "fitness_centre", "name": "Bodyhit", "official_name": "Bodyhit Neuilly-Sur-Seine Electrostimulation", "opening_hours": "Mo-Fr 08:00-14:00, 17:00-21:00; Sa 09:00-13:45", "website": "https://bodyhit.fr/bodyhit-club-neuilly-sur-seine-92/"}}, {"type": "node", "id": 10227806917, "lat": 48.866085, "lon": 2.363606, "tags": {"contact:city": "Paris", "contact:housenumber": "15", "contact:phone": "+33 6 44 18 90 78", "contact:postcode": "75003", "contact:street": "Rue B\u00e9ranger", "contact:website": "https://bodyhit.fr/bodyhit-club-paris-3-republique/", "leisure": "fitness_centre", "name": "Bodyhit", "official_name": "Bodyhit Paris 3 R\u00e9publique Electrostimulation", "opening_hours": "Mo-Fr 08:00-14:00, 17:00-21:00; Sa 10:00-13:00, 14:00-17:00"}}, {"type": "node", "id": 10261401878, "lat": 48.8565971, "lon": 2.3699147, "tags": {"leisure": "fitness_centre", "name": "Modo Yoga Paris", "sport": "yoga", "website": "https://modoyoga.com/paris/"}}, {"type": "node", "id": 10261401879, "lat": 48.8567392, "lon": 2.3697484, "tags": {"leisure": "fitness_centre", "name": "Le cube", "sport": "boxing", "website": "https://www.lecubefightclub.fr/"}}, {"type": "node", "id": 10275488909, "lat": 48.8466221, "lon": 2.3762824, "tags": {"contact:city": "Paris", "contact:housenumber": "38", "contact:phone": "+33 1 80 50 39 30", "contact:postcode": "75012", "contact:street": "Avenue Daumesnil", "leisure": "fitness_centre", "name": "Bodyhit", "opening_hours": "Mo-Tu 08:30-14:00, 17:00-20:30; We 17:00-20:30; Th 08:30-14:00, 17:00-21:00; Fr 08:30-14:00, 17:00-20:30; Sa 09:00-15:00", "ref:FR:SIRET": "85229466900019", "website": "https://bodyhitgaredelyon.myshopify.com/"}}, {"type": "node", "id": 10275491710, "lat": 48.8916554, "lon": 2.2863851, "tags": {"contact:city": "Levallois-Perret", "contact:housenumber": "57", "contact:phone": "+33 6 95 19 68 39", "contact:postcode": "92300", "contact:street": "Rue Aristide Briand", "leisure": "fitness_centre", "name": "Bodyhit", "opening_hours": "Mo-Fr 08:30-14:00, 17:00-21:00; Sa 09:30-14:00", "ref:FR:SIRET": "84153243500010", "website": "https://bodyhit.fr/bodyhit-club-levallois-perret-92/"}}, {"type": "node", "id": 10280262721, "lat": 48.8183305, "lon": 2.3242808, "tags": {"contact:city": "Montrouge", "contact:housenumber": "8", "contact:phone": "+33 9 77 02 68 82", "contact:postcode": "92120", "contact:street": "Rue Th\u00e9ophile Gautier", "leisure": "fitness_centre", "name": "Bodyhit", "opening_hours": "Mo-Fr 08:00-14:00, 17:00-21:00; Sa 09:00-15:00", "website": "https://bodyhit.fr/bodyhit-club-montrouge/", "wheelchair": "limited"}}, {"type": "node", "id": 10280269011, "lat": 48.845233, "lon": 2.324173, "tags": {"contact:city": "Paris", "contact:housenumber": "13", "contact:phone": "+33 1 43 21 09 53", "contact:postcode": "75006", "contact:street": "Rue Littr\u00e9", "leisure": "fitness_centre", "name": "Bodyhit", "opening_hours": "Mo-Th 08:00-14:00, 17:00-21:00; Fr 08:00-14:00, 16:00-21:00; Sa 09:30-18:30", "ref:FR:SIRET": "84082995600027", "website": "https://bodyhit.fr/bodyhit-club-paris-6-rennes-montparnasse/"}}, {"type": "node", "id": 10280281674, "lat": 48.8455643, "lon": 2.3544095, "tags": {"contact:city": "Paris", "contact:housenumber": "31 bis", "contact:phone": "+33 1 72 38 22 24", "contact:postcode": "75005", "contact:street": "Rue Linn\u00e9", "leisure": "fitness_centre", "name": "Bodyhit Paris 5 Jussieu Electrostimulation", "opening_hours": "Mo-Fr 08:00-14:00, 17:00-21:00; Sa 09:00-15:00; Su 09:00-13:00", "ref:FR:SIRET": "84391481300046", "website": "https://bodyhit.fr/bodyhit-club-jussieu-paris-5/"}}, {"type": "node", "id": 10280288918, "lat": 48.8332914, "lon": 2.355285, "tags": {"contact:city": "Paris", "contact:housenumber": "12", "contact:phone": "+33 1 73 71 58 12", "contact:postcode": "75013", "contact:street": "Rue Coypel", "leisure": "fitness_centre", "name": "Bodyhit Paris 13 Place D'italie Electrostimulation", "opening_hours": "Mo-Fr 08:00-14:00, 16:30-21:00; Sa 09:00-13:00, 14:30-18:00; Su 09:00-14:00", "ref:FR:SIRET": "84391481300020", "website": "https://bodyhit.fr/bodyhit-club-paris-place-italie/"}}, {"type": "node", "id": 10300535446, "lat": 48.8944926, "lon": 2.3184384, "tags": {"leisure": "fitness_centre", "name": "Salles de sport Bernard Lafay"}}, {"type": "node", "id": 10311571909, "lat": 48.8827714, "lon": 2.2679957, "tags": {"addr:housenumber": "166", "addr:street": "Avenue Charles de Gaulle", "email": "166@climbingdistrict.com", "leisure": "fitness_centre", "name": "Climbing District", "opening_hours": "Tu-Sa 07:00-00:00; Su-Mo 08:00-00:00", "phone": "+33768757547", "website": "https://climbingdistrict.com/pont-de-neuilly/"}}, {"type": "node", "id": 10313025721, "lat": 48.8633763, "lon": 2.3608045, "tags": {"leisure": "fitness_centre", "name": "Jacques De Molay Fitness"}}, {"type": "node", "id": 10554819172, "lat": 48.8207246, "lon": 2.3481972}, {"type": "node", "id": 10623969677, "lat": 48.8803434, "lon": 2.3257265, "tags": {"leisure": "fitness_centre", "name": "Nova Fitness"}}, {"type": "node", "id": 10658448610, "lat": 48.8540821, "lon": 2.3731808, "tags": {"addr:city": "Paris", "addr:housenumber": "6", "addr:postcode": "75011", "addr:street": "Passage Louis-Philippe", "brand": "Neoness", "brand:wikidata": "Q86668014", "brand:wikipedia": "fr:Neoness", "leisure": "fitness_centre", "name": "Neoness", "opening_hours": "Mo-Fr 07:00-22:00; Sa 09:00-19:00; Su 09:00-17:00", "website": "https://www.neoness.fr/"}}, {"type": "node", "id": 10686469181, "lat": 48.8550166, "lon": 2.3706767, "tags": {"leisure": "fitness_centre", "name": "L'Appart Fitness"}}, {"type": "node", "id": 10689441819, "lat": 48.8689014, "lon": 2.3571987, "tags": {"leisure": "fitness_centre", "name": "Homa"}}, {"type": "node", "id": 10741223769, "lat": 48.8293009, "lon": 2.3260518, "tags": {"addr:city": "Paris", "addr:housenumber": "214", "addr:postcode": "75014", "addr:street": "Avenue du Maine", "leisure": "fitness_centre", "name": "Neoness", "opening_hours": "mo-fr 7-22 sa 09-19 su 09-17", "phone": "+33 188610965", "sport": "yoga;fitness;running;crossfit", "website": "https://www.neoness.fr/", "wheelchair": "yes"}}, {"type": "node", "id": 10750312127, "lat": 48.8485526, "lon": 2.380527, "tags": {"addr:city": "Paris", "addr:housenumber": "46", "addr:postcode": "75012", "addr:street": "Rue Crozatier", "leisure": "fitness_centre", "name": "Espace Crozatier", "phone": "+33 6 19 60 78 76", "sport": "yoga"}}, {"type": "node", "id": 10807924221, "lat": 48.8410772, "lon": 2.3443577, "tags": {"leisure": "fitness_centre", "name": "Mill\u00e9sime", "opening_hours": "Mo-Sa 10:00-20:00", "ref:FR:SIREN": "920173648", "ref:FR:SIRET": "92017364800014", "website": "https://millesime-coaching.fr/"}}, {"type": "node", "id": 10814991390, "lat": 48.8643471, "lon": 2.3443153, "tags": {"leisure": "fitness_centre", "name": "Yuj - Yoga Studio", "sport": "yoga", "wheelchair": "limited"}}, {"type": "node", "id": 10825354708, "lat": 48.8497874, "lon": 2.3180045, "tags": {"leisure": "fitness_centre", "name": "Club 5"}}, {"type": "node", "id": 10858119905, "lat": 48.8866302, "lon": 2.3856247, "tags": {"brand": "Basic-Fit", "brand:wikidata": "Q40165577", "leisure": "fitness_centre", "name": "Basic-Fit"}}, {"type": "node", "id": 10879257125, "lat": 48.8354567, "lon": 2.2993854, "tags": {"leisure": "fitness_centre", "name": "QEE yoga & pilates"}}, {"type": "node", "id": 10883956705, "lat": 48.8692569, "lon": 2.3526356, "tags": {"contact:city": "Paris 2eme Arrondissement", "contact:housenumber": "250", "contact:phone": "+33 1 77 19 34 48", "contact:postcode": "75002", "contact:street": "Rue Saint-Denis", "leisure": "fitness_centre", "name": "Bodytech Center", "opening_hours": "Mo-Fr 09:00-18:00", "ref:FR:SIRET": "79322799200039", "website": "https://nell-associes.com/"}}, {"type": "node", "id": 10884239066, "lat": 48.8530436, "lon": 2.3702729, "tags": {"brand": "Fitness Park", "brand:wikidata": "Q102351191", "leisure": "fitness_centre", "name": "Fitness Park"}}, {"type": "node", "id": 10884721359, "lat": 48.874714, "lon": 2.2862173, "tags": {"leisure": "fitness_centre", "name": "Chronofit"}}, {"type": "node", "id": 10886004094, "lat": 48.8870684, "lon": 2.3786486, "tags": {"brand": "Basic-Fit", "brand:wikidata": "Q40165577", "leisure": "fitness_centre", "name": "Basic-Fit"}}, {"type": "node", "id": 10940356054, "lat": 48.8815938, "lon": 2.3348577, "tags": {"leisure": "fitness_centre", "name": "Yay", "sport": "yoga"}}, {"type": "node", "id": 10943139330, "lat": 48.8524945, "lon": 2.333604, "tags": {"contact:phone": "+33 1 42 02 98 10", "leisure": "fitness_centre", "name": "Better Body", "opening_hours": "Mo-Fr 07:00-14:00,16:00-21:00, Sa 09:00-19:00, Su 10:00-18:00", "website": "https://betterbody.fr"}}, {"type": "node", "id": 10946220825, "lat": 48.847743, "lon": 2.3289436, "tags": {"contact:phone": "+33 9 88 04 27 97", "leisure": "fitness_centre", "name": "Allsteps", "opening_hours": "Mo-Fr 07:00-23:00, Sa-Su 09:00-21:00", "website": "https://www.allsteps.fr"}}, {"type": "node", "id": 10976553569, "lat": 48.8583349, "lon": 2.3772261, "tags": {"addr:city": "Paris", "addr:housenumber": "6", "addr:postcode": "75011", "addr:street": "Passage Lisa", "leisure": "fitness_centre", "name": "Mu:v", "sport": "yoga"}}, {"type": "node", "id": 11128428819, "lat": 48.8229296, "lon": 2.316079, "tags": {"brand": "Basic-Fit", "brand:wikidata": "Q40165577", "leisure": "fitness_centre", "name": "Basic-Fit", "opening_hours": "Mo-Fr 06:00-22:30; Sa,Su 09:00-19:00; PH 09:00-16:00", "wheelchair": "yes"}}, {"type": "node", "id": 11170036126, "lat": 48.8857385, "lon": 2.3115738, "tags": {"leisure": "fitness_centre", "name": "Sporting Fitness Club"}}, {"type": "node", "id": 11194687492, "lat": 48.8400938, "lon": 2.3299562, "tags": {"leisure": "fitness_centre", "name": "Les Cercles de la Forme"}}, {"type": "node", "id": 11201888263, "lat": 48.892422, "lon": 2.3193577, "tags": {"addr:city": "Paris", "addr:housenumber": "18", "addr:postcode": "75017", "addr:street": "Rue Pouchet", "check_date": "2023-09-21", "description": "HEGO CrossFit \u00ae Batignolles est une Box de CrossFit \u00ae haut de gamme de 650 M2. Situ\u00e9e au c\u0153ur du 17\u00e8me arrondissement de Paris, elle est accessible par la ligne 13 et 14.", "leisure": "fitness_centre", "name": "HEGO CrossFit Batignolles", "opening_hours": "Mo-Tu 07:00-21:00; Fr 07:00-20:30; Sa 10:00-15:00; Su 10:00-13:00", "phone": "+33 1 42 29 17 24", "sport": "crossfit", "website": "https://www.facebook.com/crossfit.batignolles"}}, {"type": "node", "id": 11202486801, "lat": 48.8415336, "lon": 2.3316843, "tags": {"contact:email": "metamorphosepilates@gmail.com", "contact:mobile": "+33 6 01 54 88 99", "leisure": "fitness_centre", "name": "Studio M\u00e9tamorphose", "opening_hours": "Mo-Tu,Th 09:00-20:00, We 09:00-18:00, Fr 09:00-16:00, Sa 09:00-14:00", "sport": "yoga", "website": "https://www.studio-metamorphose-paris.fr"}}, {"type": "node", "id": 11207324517, "lat": 48.858348, "lon": 2.3757089, "tags": {"addr:city": "Paris", "addr:housenumber": "37", "addr:postcode": "75011", "addr:street": "Rue Br\u00e9guet", "check_date": "2023-09-21", "description": "CFOA a ouvert en janvier 2016 sa deuxi\u00e8me salle rue Br\u00e9guet dans le 11\u00e8me, toujours dans le m\u00eame \u00e9tat d\u2019esprit. Un espace simple et sobre, d\u00e9di\u00e9 \u00e0 l\u2019entra\u00eenement avant tout.", "email": "contact@crossfitoriginaladdicts.com", "leisure": "fitness_centre", "name": "CrossFit Original Addicts", "phone": "+33 9 53 80 59 28", "sport": "crossfit;gym;weightlifting", "website": "https://crossfitoriginaladdicts.com/"}}, {"type": "node", "id": 11209627621, "lat": 48.8752955, "lon": 2.3319722, "tags": {"addr:city": "Paris", "addr:housenumber": "45", "addr:postcode": "75009", "addr:street": "Rue de la Chauss\u00e9e d'Antin", "check_date": "2023-09-22", "description": "Sessions individuelles ou en Small Group Training.", "leisure": "fitness_centre", "name": "Le Labo by OmegaWorkout", "opening_hours": "Mo-Sa 06:00-22:00", "phone": "+33 9 87 45 04 58", "sport": "fitness", "website": "https://www.omegaworkout.com/"}}, {"type": "node", "id": 11210193592, "lat": 48.8528953, "lon": 2.3879799, "tags": {"addr:city": "Paris", "addr:housenumber": "220", "addr:postcode": "75011", "addr:street": "Boulevard Voltaire", "check_date": "2023-09-22", "description": "On se permet de croire non seulement que nous proposons la meilleure m\u00e9thode de remise en forme et de pr\u00e9paration physique existante", "email": "silvaticus.crossfit@gmail.com", "leisure": "fitness_centre", "name": "Silvaticus CrossFit", "opening_hours": "Mo-Fr 07:00-21:45; Sa-Su 10:00-14:00", "phone": "+33 6 40 12 33 00", "sport": "crossfit;gymnastics;weightlifting", "website": "https://www.silvaticus.fr/"}}, {"type": "node", "id": 11212318408, "lat": 48.8842721, "lon": 2.3090545, "tags": {"leisure": "fitness_centre", "name": "Yay Yoga And You", "opening_hours": "\"Sur planning\"", "sport": "yoga", "wheelchair": "no"}}, {"type": "node", "id": 11219828081, "lat": 48.8837468, "lon": 2.316562, "tags": {"leisure": "fitness_centre", "name": "Studio Rising", "opening_hours": "\"Uniquement sur rendez-vous\"", "phone": "+0628761768", "website": "http://www.studiorising.fr", "wheelchair": "yes"}}, {"type": "node", "id": 11228753539, "lat": 48.871864, "lon": 2.3513924, "tags": {"addr:housenumber": "21", "addr:postcode": "75010", "addr:street": "Rue d'Enghien", "brand": "Arkose", "leisure": "fitness_centre", "name": "Arkose Strasbourg Saint Denis", "opening_hours": "Mo-Su 07:00-00:00", "phone": "+33 1 77 37 91 00", "sport": "climbing", "website": "https://arkose.com/"}}, {"type": "node", "id": 11230597929, "lat": 48.8720124, "lon": 2.3503362, "tags": {"contact:city": "Paris 10eme Arrondissement", "contact:housenumber": "31", "contact:phone": "+33 1 73 74 28 74", "contact:postcode": "75010", "contact:street": "Rue D'enghien", "leisure": "fitness_centre", "name": "Bodyhit", "opening_hours": "Mo-Tu 08:00-14:00, 17:00-20:30; We 08:00-14:30; Th 08:00-14:00, 17:00-20:30; Fr 08:30-14:00, 17:00-20:00; Sa 09:00-14:30", "ref:FR:SIRET": "84928774300017", "website": "https://bodyhit.fr/bodyhit-club-paris-10-bonne-nouvelle/"}}, {"type": "node", "id": 11233035604, "lat": 48.876922, "lon": 2.3520628, "tags": {"check_date": "2024-08-25", "leisure": "fitness_centre", "name": "Baba Yoga Club", "sport": "yoga"}}, {"type": "node", "id": 11251221364, "lat": 48.8384479, "lon": 2.2934339, "tags": {"contact:email": "training.oben@gmail.com", "contact:phone": "+33 1 47 05 72 50", "leisure": "fitness_centre", "name": "O Ben Training", "opening_hours": "Mo,We 17:00-21:30, Tu,Fr 08:30-21:30, Th 08:30-20:00, Sa 09:00-14:00", "website": "https://www.obentraining.fr"}}, {"type": "node", "id": 11258114040, "lat": 48.8845756, "lon": 2.3157002, "tags": {"leisure": "fitness_centre", "name": "MyBigBang", "opening_hours": "\"sur rendez-vous\""}}, {"type": "node", "id": 11264714280, "lat": 48.8736178, "lon": 2.3513675, "tags": {"leisure": "fitness_centre", "name": "Drip"}}, {"type": "node", "id": 11349888533, "lat": 48.8439078, "lon": 2.3285032, "tags": {"contact:mobile": "+33 6 12 70 14 14", "leisure": "fitness_centre", "name": "Yoga Raspail", "ref:FR:SIREN": "534859079", "ref:FR:SIRET": "53485907900012", "sport": "yoga", "website": "https://www.yogaraspail.fr"}}, {"type": "node", "id": 11364740414, "lat": 48.8853959, "lon": 2.3283775, "tags": {"brand": "Fitness Park", "brand:wikidata": "Q102351191", "leisure": "fitness_centre", "name": "Fitness Park"}}, {"type": "node", "id": 11489116226, "lat": 48.8500468, "lon": 2.3251815, "tags": {"leisure": "fitness_centre", "name": "dynamo", "sport": "cycling", "website": "https://dynamo-cycling.com/"}}, {"type": "node", "id": 11496861914, "lat": 48.8711409, "lon": 2.3684164, "tags": {"addr:housenumber": "28", "addr:street": "Rue Bichat", "check_date": "2024-01-07", "email": "hello@kahstudioandcoffee.com", "leisure": "fitness_centre", "name": "KAH Studio", "phone": "+33 1 53 21 93 54", "sport": "fitness", "website": "https://www.kahstudioandcoffee.com/"}}, {"type": "node", "id": 11580004122, "lat": 48.8796569, "lon": 2.3471519, "tags": {"leisure": "fitness_centre", "name": "JCore Training"}}, {"type": "node", "id": 11631786408, "lat": 48.851233, "lon": 2.3324371, "tags": {"brand": "Basic-Fit", "brand:website": "https://www.basic-fit.com", "brand:wikidata": "Q40165577", "leisure": "fitness_centre", "name": "Basic-Fit", "opening_hours": "Mo-Fr 06:00-22:30, Sa-Su 09:00-19:00"}}, {"type": "node", "id": 11665570041, "lat": 48.8951914, "lon": 2.3571812, "tags": {"brand": "Basic-Fit", "brand:wikidata": "Q40165577", "leisure": "fitness_centre", "name": "Basic-Fit", "sport": "fitness"}}, {"type": "node", "id": 11708389713, "lat": 48.8938955, "lon": 2.2955883, "tags": {"brand": "Basic-Fit", "brand:wikidata": "Q40165577", "leisure": "fitness_centre", "name": "Basic-Fit"}}, {"type": "node", "id": 11737676075, "lat": 48.8865552, "lon": 2.3169933, "tags": {"leisure": "fitness_centre", "name": "Reformer Pilates"}}, {"type": "node", "id": 11755460283, "lat": 48.8540875, "lon": 2.3269112, "tags": {"contact:phone": "+33 1 43 22 67 06", "leisure": "fitness_centre", "name": "Body Hit"}}, {"type": "node", "id": 11758484940, "lat": 48.8290974, "lon": 2.3776989, "tags": {"leisure": "fitness_centre", "name": "On Air"}}, {"type": "node", "id": 11806890060, "lat": 48.8941011, "lon": 2.2796707, "tags": {"leisure": "fitness_centre"}}, {"type": "node", "id": 11861571969, "lat": 48.8569417, "lon": 2.3731612, "tags": {"addr:housenumber": "6", "addr:postcode": "75011", "addr:street": "Rue Froment", "email": "basic-fit.com", "leisure": "fitness_centre", "name": "Basic-Fit", "name:en": "Basic Fit", "name:fr": "Basic Fit", "opening_hours": "Mo-Fr 06:00-22:30; Sa-Su 09:00-19:00", "phone": "+33 3 66 33 33 44", "website": "https://basic-fit.com/"}}, {"type": "node", "id": 11876923321, "lat": 48.8848353, "lon": 2.3706121, "tags": {"addr:housenumber": "15", "addr:street": "Quai de la Seine", "leisure": "fitness_centre", "name": "Yoga & Co", "sport": "yoga", "website": "https://yogaandco.fr"}}, {"type": "node", "id": 11877674628, "lat": 48.8265548, "lon": 2.3093843, "tags": {"contact:email": "dosport.paris14@gmail.com", "contact:phone": "+33 1 76 53 97 75", "leisure": "fitness_centre", "level": "0", "name": "Do Sport", "strapline": "La voie du sport", "website": "https://www.dosport-paris.fr"}}, {"type": "node", "id": 11881205487, "lat": 48.9027705, "lon": 2.3777686, "tags": {"brand": "Neoness", "brand:wikidata": "Q86668014", "leisure": "fitness_centre", "name": "Neoness"}}, {"type": "node", "id": 12025458569, "lat": 48.8396176, "lon": 2.3400783, "tags": {"contact:city": "Paris 5eme Arrondissement", "contact:housenumber": "338", "contact:phone": "+33 1 42 03 53 13", "contact:postcode": "75005", "contact:street": "Rue Saint-Jacques", "leisure": "fitness_centre", "name": "Bodyhit", "opening_hours": "Mo-Fr 08:00-14:00, 17:00-21:00; Sa 09:00-14:00", "website": "https://bodyhit.fr/bodyhit-club-paris-5-port-royal/"}}, {"type": "node", "id": 12178483651, "lat": 48.865622, "lon": 2.3488997, "tags": {"leisure": "fitness_centre", "name": "Sputnik Yoga Space", "sport": "yoga", "wheelchair": "no"}}, {"type": "node", "id": 12188738601, "lat": 48.848328, "lon": 2.3535714, "tags": {"leisure": "fitness_centre", "name": "Heartspot", "sport": "yoga"}}, {"type": "node", "id": 12290487967, "lat": 48.8747268, "lon": 2.3593442, "tags": {"leisure": "fitness_centre", "name": "Centre Sivananda de Yoga Vedanta", "sport": "yoga", "website": "https://sivanandaparis.org/"}}, {"type": "node", "id": 12293997881, "lat": 48.8910543, "lon": 2.329226, "tags": {"leisure": "fitness_centre", "name": "Skarbowsky - boxe thai"}}, {"type": "node", "id": 12323846363, "lat": 48.8439348, "lon": 2.3828168, "tags": {"leisure": "fitness_centre", "name": "easyGym Paris Daumesnil", "website": "https://www.easygym.fr/salle-de-sport/easygym-paris-daumesnil/"}}, {"type": "node", "id": 12344811860, "lat": 48.8942825, "lon": 2.3739865, "tags": {"brand": "Basic-Fit", "brand:wikidata": "Q40165577", "leisure": "fitness_centre", "name": "Basic-Fit"}}, {"type": "node", "id": 12422400473, "lat": 48.8836132, "lon": 2.3648481, "tags": {"leisure": "fitness_centre", "name": "Swedish Fit Chaudron", "sport": "fitness", "survey:date": "2024-12-14", "website": "https://www.swedishfit.fr"}}, {"type": "node", "id": 12431574001, "lat": 48.8836254, "lon": 2.3648651, "tags": {"leisure": "fitness_centre", "name": "Swedish Fit Chaudron"}}, {"type": "node", "id": 12469483088, "lat": 48.8188492, "lon": 2.3382615, "tags": {"leisure": "fitness_centre", "website": "https://www.ciup.fr/services/sports/"}}, {"type": "way", "id": 53777469, "nodes": [678904765, 678904155, 678902108, 1791366389, 678936845, 678904765], "tags": {"building": "yes", "building:levels": "5", "leisure": "fitness_centre", "name": "Acad\u00e9mie Yoga Ayurveda Sagesse & Harmonie", "opening_hours": "Mo 10:30-20:30; Tu-We 10:30-22:00; Th-Fr 10:30-20:30; Sa-Su 10:15-18:15", "phone": "+33611330735", "source": "cadastre-dgi-fr source : Direction G\u00e9n\u00e9rale des Imp\u00f4ts - Cadastre;mise \u00e0 jour : 2010", "sport": "yoga"}}, {"type": "way", "id": 64039267, "nodes": [789980718, 789981036, 789980017, 789975828, 789974231, 789988461, 789981919, 789979540, 789986918, 789980405, 789990139, 789995082, 789985771, 789979881, 789986858, 789976955, 789975300, 789986716, 789980256, 789981785, 789978296, 789974290, 789990632, 789974272, 789992937, 789980718], "tags": {"building": "yes", "building:levels": "1", "description": "Salle de sport r\u00e9serv\u00e9s aux salari\u00e9s des parcs du Pont de Flandre", "email": "pontdeflandre@wellnesscenter.fr", "leisure": "fitness_centre", "name": "Le Health Village", "opening_hours": "Mo-Fr 11:30-14:30, 17:00-20:00", "phone": "+33979221822", "ref:building": "031", "source": "cadastre-dgi-fr source : Direction G\u00e9n\u00e9rale des Imp\u00f4ts - Cadastre. Mise \u00e0 jour : 2010", "website": "https://wellnesstraining.fr/"}}, {"type": "way", "id": 74475298, "nodes": [880206442, 880226149, 880256892, 880248843, 880226221, 880228650, 880245750, 880245643, 880182454, 880227113, 880183334, 880279545, 880234217, 880265984, 880206442], "tags": {"addr:housenumber": "4", "building": "yes", "leisure": "fitness_centre", "name": "gigafit", "source": "extraction vectorielle v1 cadastre-dgi-fr source : Direction G\u00e9n\u00e9rale des Imp\u00f4ts - Cadas. Mise \u00e0 jour : 2010", "sport": "crossfit", "website": "https://www.gigafit.fr/club/clichy"}}, {"type": "way", "id": 74489680, "nodes": [880435502, 880437429, 880439344, 880441089, 880443457, 880436607, 880438626, 880440358, 880437208, 5860888385, 880440862, 880443265, 880436385, 880438269, 880440114, 880442305, 880440559, 880442925, 880436037, 880435502], "tags": {"building": "yes", "building:levels": "1", "leisure": "fitness_centre", "name": "Kbox", "source": "survey 2018"}}, {"type": "way", "id": 112567379, "nodes": [1279133603, 1279133663, 1279133703, 1504896007, 1279133656, 1279133462, 1279133393, 1279133589, 1279133632, 1279133697, 1279133715, 1279133603], "tags": {"addr:housenumber": "92", "addr:street": "Avenue Victor Cresson", "building": "yes", "leisure": "fitness_centre", "name": "Giga Fit", "note": "Presse", "source": "Open Data - Issy-les-Moulineaux - M\u00e9dias - Mars 2015", "sport": "fitness", "website": "https://www.wedemain.fr/"}}, {"type": "way", "id": 1097410546, "nodes": [10048388654, 10048388655, 10048388656, 10048388657, 10048388654], "tags": {"addr:city": "Paris", "addr:housenumber": "43", "addr:postcode": "75001", "addr:street": "Rue \u00c9tienne Marcel", "building": "yes", "leisure": "fitness_centre", "name": "Riise", "sport": "yoga", "wheelchair": "limited"}}, {"type": "way", "id": 1131987360, "nodes": [921163852, 10554819172, 921164834, 921163799, 921160231, 921163285, 921163852], "tags": {"building:part": "yes", "leisure": "fitness_centre", "source": "knowledge"}}]}