{"version": 0.6, "generator": "Overpass API 0.7.62.4 2390de5a", "osm3s": {"timestamp_osm_base": "2025-01-14T21:01:14Z", "copyright": "The data included in this document is from www.openstreetmap.org. The data is made available under ODbL."}, "elements": [{"type": "node", "id": 735998141, "lat": 10.7815242, "lon": 106.6927893}, {"type": "node", "id": 735998159, "lat": 10.7810906, "lon": 106.6924025}, {"type": "node", "id": 735998180, "lat": 10.7814861, "lon": 106.6919651}, {"type": "node", "id": 735998201, "lat": 10.7818166, "lon": 106.6924603}, {"type": "node", "id": 746932573, "lat": 10.8083709, "lon": 106.678236}, {"type": "node", "id": 746932574, "lat": 10.8083747, "lon": 106.6779693}, {"type": "node", "id": 746932575, "lat": 10.8090872, "lon": 106.6779797}, {"type": "node", "id": 746932576, "lat": 10.8090834, "lon": 106.6782464}, {"type": "node", "id": 947763519, "lat": 10.7652697, "lon": 106.7028692, "tags": {"name": "Focomart", "shop": "supermarket"}}, {"type": "node", "id": 1001114473, "lat": 10.8064771, "lon": 106.6949342, "tags": {"name": "C\u1eeda H\u00e0ng Ti\u1ec7n L\u1ee3i Shop&Go!", "operator": "Shop&Go", "shop": "supermarket"}}, {"type": "node", "id": 1001114491, "lat": 10.8036214, "lon": 106.7012353, "tags": {"name": "Focomart", "shop": "supermarket"}}, {"type": "node", "id": 1276705964, "lat": 10.7998852, "lon": 106.7441739}, {"type": "node", "id": 1276705966, "lat": 10.8011463, "lon": 106.7439781}, {"type": "node", "id": 1276705968, "lat": 10.7989502, "lon": 106.7425054}, {"type": "node", "id": 1276705969, "lat": 10.8008138, "lon": 106.7421564}, {"type": "node", "id": 1276983144, "lat": 10.798877, "lon": 106.7438082}, {"type": "node", "id": 1276983180, "lat": 10.7989724, "lon": 106.7440137}, {"type": "node", "id": 1276983226, "lat": 10.7988004, "lon": 106.743851}, {"type": "node", "id": 1276983247, "lat": 10.79883, "lon": 106.7440834}, {"type": "node", "id": 1277146553, "lat": 10.798856, "lon": 106.7439666}, {"type": "node", "id": 1277146607, "lat": 10.7987907, "lon": 106.7440022}, {"type": "node", "id": 1597982717, "lat": 10.7769187, "lon": 106.6811112, "tags": {"name": "Maximart", "shop": "supermarket"}}, {"type": "node", "id": 1635104039, "lat": 10.816301, "lon": 106.6981233, "tags": {"name": "Si\u00eau Th\u1ecb B\u00ecnh H\u00f2a", "shop": "supermarket"}}, {"type": "node", "id": 1657475508, "lat": 10.7579255, "lon": 106.6731127, "tags": {"name": "Si\u00eau Th\u1ecb Mela", "shop": "supermarket"}}, {"type": "node", "id": 1657536311, "lat": 10.7669326, "lon": 106.6864962}, {"type": "node", "id": 1657536313, "lat": 10.7673387, "lon": 106.6859054}, {"type": "node", "id": 1657536316, "lat": 10.7673685, "lon": 106.6864845}, {"type": "node", "id": 1657536318, "lat": 10.7669327, "lon": 106.6859254}, {"type": "node", "id": 1657536332, "lat": 10.7675635, "lon": 106.6860128}, {"type": "node", "id": 1770597640, "lat": 10.7737618, "lon": 106.704673, "tags": {"shop": "supermarket"}}, {"type": "node", "id": 1773230303, "lat": 10.7559528, "lon": 106.6624963, "tags": {"addr:housenumber": "Floor 4", "addr:street": "\u0110\u01b0\u1eddng H\u1ed3ng B\u00e0ng", "name": "C\u1eeda H\u00e0ng Mua S\u1eafm Citimart", "name:de": "Citimart", "name:vi": "Citimart H\u00f9ng V\u01b0\u01a1ng", "shop": "supermarket"}}, {"type": "node", "id": 1997154373, "lat": 10.7542055, "lon": 106.6645954, "tags": {"name": "Si\u00eau th\u1ecb \u0110i\u1ec7n m\u00e1y Ch\u1ee3 L\u1edbn", "shop": "supermarket"}}, {"type": "node", "id": 1997154469, "lat": 10.7594167, "lon": 106.6614079}, {"type": "node", "id": 1997154471, "lat": 10.7602063, "lon": 106.6615947}, {"type": "node", "id": 1997154614, "lat": 10.7594954, "lon": 106.6617595}, {"type": "node", "id": 1997154664, "lat": 10.7601276, "lon": 106.661243}, {"type": "node", "id": 2141010789, "lat": 10.7767779, "lon": 106.7050958, "tags": {"addr:city": "Th\u00e0nh ph\u1ed1 H\u1ed3 Ch\u00ed Minh", "addr:district": "Qu\u1eadn 1", "addr:housenumber": "16-18", "addr:street": "Hai B\u00e0 Tr\u01b0ng", "email": "haibatrung@annam-gourmet.com", "name": "Si\u00eau Th\u1ecb Online Annam Gourmet", "phone": "08 3822 9332", "shop": "supermarket", "website": "http://www.annam-gourmet.com"}}, {"type": "node", "id": 2176765019, "lat": 10.7864217, "lon": 106.6755113, "tags": {"name": "Co.op Mart", "shop": "supermarket"}}, {"type": "node", "id": 2623036409, "lat": 10.8014349, "lon": 106.7468623, "tags": {"brand": "Big C", "brand:wikidata": "Q858665", "brand:wikipedia": "en:Big C", "name": "Big C", "shop": "supermarket"}}, {"type": "node", "id": 2623148533, "lat": 10.8055435, "lon": 106.7365392}, {"type": "node", "id": 2623148535, "lat": 10.8053466, "lon": 106.7367998}, {"type": "node", "id": 2623148538, "lat": 10.8053127, "lon": 106.7363563}, {"type": "node", "id": 2623151855, "lat": 10.8050261, "lon": 106.7362642, "tags": {"name": "Si\u00eau Th\u1ecb Online Annam Gourmet", "shop": "supermarket"}}, {"type": "node", "id": 2654717064, "lat": 10.8165409, "lon": 106.7211011}, {"type": "node", "id": 2654717066, "lat": 10.8163896, "lon": 106.7208019}, {"type": "node", "id": 2654717068, "lat": 10.8162383, "lon": 106.7208812}, {"type": "node", "id": 2654717070, "lat": 10.8163895, "lon": 106.7211804}, {"type": "node", "id": 2686083905, "lat": 10.7815174, "lon": 106.6921901}, {"type": "node", "id": 2686083906, "lat": 10.7816512, "lon": 106.6920357}, {"type": "node", "id": 2686083908, "lat": 10.7812312, "lon": 106.6917102}, {"type": "node", "id": 2686083909, "lat": 10.7817338, "lon": 106.6918582}, {"type": "node", "id": 2686083910, "lat": 10.7816168, "lon": 106.6919843}, {"type": "node", "id": 2690659762, "lat": 10.7787436, "lon": 106.6649203}, {"type": "node", "id": 2690659763, "lat": 10.778602, "lon": 106.6647431}, {"type": "node", "id": 2690659764, "lat": 10.7780359, "lon": 106.6652011}, {"type": "node", "id": 2690659765, "lat": 10.7783464, "lon": 106.6657021}, {"type": "node", "id": 2690659766, "lat": 10.7782238, "lon": 106.6654787}, {"type": "node", "id": 2690659767, "lat": 10.7781663, "lon": 106.6653847}, {"type": "node", "id": 2690659768, "lat": 10.7781346, "lon": 106.6654109}, {"type": "node", "id": 2690659769, "lat": 10.7781875, "lon": 106.6654941}, {"type": "node", "id": 2690659770, "lat": 10.7782995, "lon": 106.6655804}, {"type": "node", "id": 2690659771, "lat": 10.7782919, "lon": 106.6655973}, {"type": "node", "id": 2690659772, "lat": 10.7783797, "lon": 106.6656713}, {"type": "node", "id": 2690659773, "lat": 10.7789335, "lon": 106.665155}, {"type": "node", "id": 2690659774, "lat": 10.778964, "lon": 106.6654883}, {"type": "node", "id": 2690659775, "lat": 10.7785053, "lon": 106.66585}, {"type": "node", "id": 2942880408, "lat": 10.7782834, "lon": 106.665341, "tags": {"branch": "Mi\u1ec1n \u0110\u00f4ng", "brand": "Big C", "brand:wikidata": "Q858665", "name": "Big C", "shop": "supermarket"}}, {"type": "node", "id": 2948812333, "lat": 10.784261, "lon": 106.69973, "tags": {"name": "Citimart", "name:vi": "Citi MK", "shop": "supermarket"}}, {"type": "node", "id": 3372657108, "lat": 10.7688834, "lon": 106.6671212}, {"type": "node", "id": 3372657110, "lat": 10.7690551, "lon": 106.6677358}, {"type": "node", "id": 3372657111, "lat": 10.7685527, "lon": 106.6679926}, {"type": "node", "id": 3631210571, "lat": 10.8119362, "lon": 106.7119424, "tags": {"addr:city": "Ph\u01b0\u1eddng 26", "addr:district": "B\u00ecnh Th\u1ea1nh", "addr:housenumber": "224/5 Bis", "addr:postcode": "70000", "addr:province": "Vi\u1ec7t Nam", "addr:street": "Qu\u1ed1c l\u1ed9 13", "name": "Co.op Mart", "opening_hours": "07:00-22:00", "shop": "supermarket"}}, {"type": "node", "id": 3757239385, "lat": 10.7682739, "lon": 106.6672977}, {"type": "node", "id": 3757239386, "lat": 10.7682868, "lon": 106.6673392}, {"type": "node", "id": 3757239387, "lat": 10.7682508, "lon": 106.6673806}, {"type": "node", "id": 3762366336, "lat": 10.8050985, "lon": 106.7366144}, {"type": "node", "id": 3762367165, "lat": 10.8052312, "lon": 106.7363861}, {"type": "node", "id": 3762367180, "lat": 10.8051469, "lon": 106.7364773}, {"type": "node", "id": 3899274115, "lat": 10.7666709, "lon": 106.6877461, "tags": {"name": "Si\u00eau Th\u1ecb C&C", "shop": "supermarket"}}, {"type": "node", "id": 3928108846, "lat": 10.7736896, "lon": 106.6975615, "tags": {"name": "Street Food Market", "shop": "supermarket"}}, {"type": "node", "id": 4131363694, "lat": 10.7858096, "lon": 106.6944333, "tags": {"addr:housenumber": "176-181", "addr:street": "Hai B\u00e0 Tr\u01b0ng", "name": "Trung T\u00e2m Mua S\u1eafm S\u00e0i G\u00f2n Square 3", "shop": "supermarket"}}, {"type": "node", "id": 4202267603, "lat": 10.7440682, "lon": 106.6550118}, {"type": "node", "id": 4202267615, "lat": 10.7442628, "lon": 106.6553895}, {"type": "node", "id": 4202267623, "lat": 10.7443443, "lon": 106.655346}, {"type": "node", "id": 4202267624, "lat": 10.7443731, "lon": 106.6554018}, {"type": "node", "id": 4202267631, "lat": 10.7445051, "lon": 106.6547786}, {"type": "node", "id": 4202267640, "lat": 10.7447284, "lon": 106.6552123}, {"type": "node", "id": 4235350089, "lat": 10.741349, "lon": 106.70382, "tags": {"addr:housenumber": "353", "addr:street": "L\u00ea V\u0103n L\u01b0\u01a1ng", "name": "Satra Foods", "opening_hours": "Mo-Su 06:00-21:00", "phone": "08 377 128 74", "shop": "supermarket"}}, {"type": "node", "id": 4298805213, "lat": 10.8067769, "lon": 106.7466515}, {"type": "node", "id": 4298805216, "lat": 10.8068662, "lon": 106.7467208}, {"type": "node", "id": 4298805217, "lat": 10.8068694, "lon": 106.7466604}, {"type": "node", "id": 4298805218, "lat": 10.8067693, "lon": 106.746804}, {"type": "node", "id": 4298805219, "lat": 10.806842, "lon": 106.7468117}, {"type": "node", "id": 4298805220, "lat": 10.806842, "lon": 106.7467393}, {"type": "node", "id": 4582328601, "lat": 10.7787996, "lon": 106.6652746}, {"type": "node", "id": 4583470690, "lat": 10.7699236, "lon": 106.6925181, "tags": {"name:de": "Supermarkt", "shop": "supermarket"}}, {"type": "node", "id": 4661759792, "lat": 10.7615152, "lon": 106.6796484, "tags": {"addr:street": "\u0110\u01b0\u1eddng Tr\u1ea7n B\u00ecnh Tr\u1ecdng", "name:en": "Auchan", "name:ru": "\u0410\u0448\u0430\u043d", "shop": "supermarket"}}, {"type": "node", "id": 4682668010, "lat": 10.7993153, "lon": 106.7385877, "tags": {"shop": "supermarket"}}, {"type": "node", "id": 4805126021, "lat": 10.7692667, "lon": 106.6933366, "tags": {"name": "Trung T\u00e2m Th\u01b0\u01a1ng M\u1ea1i Sense Market", "name:en": "Sense Market", "name:ja": "\u30bb\u30f3\u30b9\u30fb\u30de\u30fc\u30b1\u30c3\u30c8", "opening_hours": "Mo-Su 10:00-22:30", "shop": "supermarket"}}, {"type": "node", "id": 4875562331, "lat": 10.7368314, "lon": 106.6698845, "tags": {"addr:housenumber": "854-856", "addr:street": "T\u1ea1 Quang B\u1eedu", "name": "C\u1eeda H\u00e0ng Zakka Nautrals - T\u1ea1 Quang B\u1eedu", "shop": "supermarket"}}, {"type": "node", "id": 4875562738, "lat": 10.7991432, "lon": 106.6695155, "tags": {"addr:housenumber": "303", "addr:street": "Nguy\u1ec5n V\u0103n Tr\u1ed7i", "name": "Si\u00eau Th\u1ecb Ti\u1ec7n L\u1ee3i Nam An", "shop": "supermarket"}}, {"type": "node", "id": 4875563424, "lat": 10.7717991, "lon": 106.7041195, "tags": {"addr:housenumber": "61", "addr:street": "H\u1ed3 T\u00f9ng M\u1eadu", "name": "Thi's Market", "shop": "supermarket"}}, {"type": "node", "id": 4882823421, "lat": 10.7618357, "lon": 106.6901287, "tags": {"addr:housenumber": "329", "addr:street": "\u0110\u01b0\u1eddng Tr\u1ea7n H\u01b0ng \u00d0\u1ea1o", "name": "Si\u00eau Th\u1ecb Ti\u1ec7n L\u1ee3i US", "name:en": "US.Mart", "phone": "02838385455", "shop": "supermarket"}}, {"type": "node", "id": 4886878622, "lat": 10.7435024, "lon": 106.6955178, "tags": {"addr:housenumber": "1", "addr:street": "\u0110\u01b0\u1eddng s\u1ed1 6", "name": "Si\u00eau Th\u1ecb Ti\u1ec7n L\u1ee3i Citi Mart", "shop": "supermarket"}}, {"type": "node", "id": 4918129153, "lat": 10.7968933, "lon": 106.6725047, "tags": {"shop": "supermarket"}}, {"type": "node", "id": 4925670429, "lat": 10.7863791, "lon": 106.6646802, "tags": {"shop": "supermarket"}}, {"type": "node", "id": 4983065216, "lat": 10.7760834, "lon": 106.6809551}, {"type": "node", "id": 4983065217, "lat": 10.7764687, "lon": 106.6811661}, {"type": "node", "id": 4983065218, "lat": 10.7766874, "lon": 106.6807521}, {"type": "node", "id": 4983065219, "lat": 10.7762915, "lon": 106.6805353}, {"type": "node", "id": 4983065220, "lat": 10.7762415, "lon": 106.68063}, {"type": "node", "id": 4983065321, "lat": 10.7761359, "lon": 106.6805722}, {"type": "node", "id": 4983065322, "lat": 10.7760013, "lon": 106.6808268}, {"type": "node", "id": 4983065323, "lat": 10.7761176, "lon": 106.6808905}, {"type": "node", "id": 5316003321, "lat": 10.762326, "lon": 106.6927709, "tags": {"amenity": "restaurant", "cuisine": "burger;sandwich;international;tea;seafood;coffee_shop;asian;pasta;noodles;pancake;pizza;vietnamese", "internet_access": "wlan", "name:en": "Ngoc hue", "shop": "supermarket", "tourism": "hotel"}}, {"type": "node", "id": 5352258705, "lat": 10.7867494, "lon": 106.6795527, "tags": {"name": "Co.op Food", "shop": "supermarket"}}, {"type": "node", "id": 5366253638, "lat": 10.7705491, "lon": 106.6695387, "tags": {"name": "Co.op Xtra", "shop": "supermarket"}}, {"type": "node", "id": 5382455323, "lat": 10.7642836, "lon": 106.6978262, "tags": {"name": "S\u1ea1p Kh\u00f4 H\u1ea3i Ph\u1ef1\u1ee3ng", "shop": "supermarket"}}, {"type": "node", "id": 5436848729, "lat": 10.7452285, "lon": 106.7159571, "tags": {"addr:street": "\u0110\u01b0\u1eddng L\u00e2m V\u0103n B\u1ec1n", "name:en": "Coop Food", "opening_hours": "Mo-Su 08:30-22:00", "shop": "supermarket"}}, {"type": "node", "id": 5559637423, "lat": 10.7722701, "lon": 106.6961872, "tags": {"name:en": "frutas", "shop": "supermarket"}}, {"type": "node", "id": 5682480422, "lat": 10.7535971, "lon": 106.676934}, {"type": "node", "id": 5682480423, "lat": 10.7540011, "lon": 106.676841}, {"type": "node", "id": 5682480427, "lat": 10.7539141, "lon": 106.6764869}, {"type": "node", "id": 5682480429, "lat": 10.7535216, "lon": 106.6765835}, {"type": "node", "id": 5688482069, "lat": 10.8018528, "lon": 106.7216474, "tags": {"addr:city": "Ho Chi Minh City", "addr:district": "Qu\u1eadn B\u00ecnh Th\u1ea1nh", "addr:street": "H\u1ebbm 326 Ung V\u0103n Khi\u00eam", "addr:subdistrict": "25", "brand": "WinMart", "brand:wikidata": "Q60245505", "name": "WinMart", "opening_hours": "24/7", "payment:cash": "yes", "payment:electronic_purses": "yes", "shop": "supermarket"}}, {"type": "node", "id": 5743013321, "lat": 10.7742791, "lon": 106.6997921, "tags": {"shop": "supermarket"}}, {"type": "node", "id": 5773200656, "lat": 10.7655607, "lon": 106.6924438, "tags": {"addr:city": "Ho Chi Minh City", "addr:district": "Qu\u1eadn 1", "addr:housenumber": "120/3", "addr:postcode": "700000", "addr:street": "H\u1ebbm 120 Tr\u1ea7n H\u01b0ng \u0110\u1ea1o", "addr:subdistrict": "ph\u01b0\u1eddng ph\u1ea1m ng\u0169 l\u00e3o", "name": "Si\u00eau th\u1ecb ph\u01b0\u1ee3t", "opening_hours": "Mo-Su 09:00-21:00", "payment:cash": "yes", "shop": "supermarket", "website": "http://sieuthiphuot.com/"}}, {"type": "node", "id": 5803798754, "lat": 10.7338138, "lon": 106.6744543, "tags": {"addr:street": "Ph\u1ea1m H\u00f9ng", "name": "Si\u00eau th\u1ecb Satra Mart - Ph\u1ea1m H\u00f9ng", "opening_hours": "Mo-Su 08:00-22:00", "shop": "supermarket"}}, {"type": "node", "id": 5950622190, "lat": 10.7910586, "lon": 106.7108159, "tags": {"shop": "supermarket"}}, {"type": "node", "id": 6054062365, "lat": 10.767144, "lon": 106.6948322, "tags": {"shop": "supermarket"}}, {"type": "node", "id": 6157860892, "lat": 10.7731189, "lon": 106.7007584, "tags": {"name": "Th\u1ef1c Ph\u1ea9m H\u1eefu C\u01a1 An To\u00e0n - Nam An", "name:en": "Annam Gourmet Market (underground Takashimaya)", "shop": "supermarket"}}, {"type": "node", "id": 6220665412, "lat": 10.7948324, "lon": 106.7217122, "tags": {"shop": "supermarket"}}, {"type": "node", "id": 6284329388, "lat": 10.7695785, "lon": 106.6970016, "tags": {"shop": "supermarket"}}, {"type": "node", "id": 6284408685, "lat": 10.7627701, "lon": 106.6878402, "tags": {"addr:street": "\u0110\u01b0\u1eddng Tr\u1ea7n \u00d0\u00ecnh Xu", "name:en": "Circle K", "shop": "supermarket"}}, {"type": "node", "id": 6315388826, "lat": 10.766391, "lon": 106.6962326, "tags": {"addr:street": "\u0110\u01b0\u1eddng Nguy\u1ec5n Th\u00e1i H\u1ecdc", "name:en": "Circle K", "shop": "supermarket"}}, {"type": "node", "id": 6315388828, "lat": 10.7658092, "lon": 106.6965487, "tags": {"shop": "supermarket"}}, {"type": "node", "id": 6315388859, "lat": 10.7849873, "lon": 106.6957305, "tags": {"name:en": "Familymart", "shop": "supermarket"}}, {"type": "node", "id": 6315388865, "lat": 10.7661781, "lon": 106.6879571, "tags": {"name:en": "Circle K", "shop": "supermarket"}}, {"type": "node", "id": 6315388868, "lat": 10.764657, "lon": 106.6875678, "tags": {"name:en": "Circle K", "shop": "supermarket"}}, {"type": "node", "id": 6315388877, "lat": 10.7621024, "lon": 106.6891263, "tags": {"name:en": "Mini Stop", "shop": "supermarket"}}, {"type": "node", "id": 6315390289, "lat": 10.8189146, "lon": 106.7008446, "tags": {"shop": "supermarket"}}, {"type": "node", "id": 6315390290, "lat": 10.8193566, "lon": 106.6990298, "tags": {"shop": "supermarket"}}, {"type": "node", "id": 6315390293, "lat": 10.792129, "lon": 106.6930053, "tags": {"shop": "supermarket"}}, {"type": "node", "id": 6315390386, "lat": 10.7846988, "lon": 106.6707748, "tags": {"shop": "supermarket"}}, {"type": "node", "id": 6315390388, "lat": 10.7843815, "lon": 106.6706651, "tags": {"name:en": "Vinmart", "shop": "supermarket"}}, {"type": "node", "id": 6315390422, "lat": 10.8189017, "lon": 106.6989915, "tags": {"shop": "supermarket"}}, {"type": "node", "id": 6315390444, "lat": 10.7637656, "lon": 106.6903151, "tags": {"name:en": "C&C", "shop": "supermarket"}}, {"type": "node", "id": 6315390447, "lat": 10.7644991, "lon": 106.6906971, "tags": {"shop": "supermarket"}}, {"type": "node", "id": 6315390485, "lat": 10.7859857, "lon": 106.6714069, "tags": {"shop": "supermarket"}}, {"type": "node", "id": 6315390492, "lat": 10.7817458, "lon": 106.670304, "tags": {"shop": "supermarket"}}, {"type": "node", "id": 6315395287, "lat": 10.7658114, "lon": 106.6907638, "tags": {"addr:street": "\u0110\u01b0\u1eddng B\u00f9i Vi\u1ec7n", "name:en": "Circle K", "shop": "supermarket"}}, {"type": "node", "id": 6315671639, "lat": 10.757121, "lon": 106.6690352, "tags": {"name:en": "Satra Foods", "shop": "supermarket"}}, {"type": "node", "id": 6315672391, "lat": 10.7634408, "lon": 106.6957358, "tags": {"shop": "supermarket"}}, {"type": "node", "id": 6315672407, "lat": 10.7563284, "lon": 106.6685596, "tags": {"name:en": "FamilyMart", "shop": "supermarket"}}, {"type": "node", "id": 6315672408, "lat": 10.756954, "lon": 106.6694273, "tags": {"shop": "supermarket"}}, {"type": "node", "id": 6315672440, "lat": 10.7605434, "lon": 106.6815332, "tags": {"name:en": "FamilyMart", "shop": "supermarket"}}, {"type": "node", "id": 6315672466, "lat": 10.7856676, "lon": 106.7023728, "tags": {"name:en": "Mini Stop", "shop": "supermarket"}}, {"type": "node", "id": 6315672483, "lat": 10.7852278, "lon": 106.6988881, "tags": {"shop": "supermarket"}}, {"type": "node", "id": 6315672795, "lat": 10.7686806, "lon": 106.6967533, "tags": {"name:en": "Foodco Mart", "shop": "supermarket"}}, {"type": "node", "id": 6315672806, "lat": 10.7544327, "lon": 106.6615921, "tags": {"name:en": "FamilyMart", "shop": "supermarket"}}, {"type": "node", "id": 6315672811, "lat": 10.758085, "lon": 106.6737931, "tags": {"name:en": "Circle k", "shop": "supermarket"}}, {"type": "node", "id": 6315672844, "lat": 10.782461, "lon": 106.7022284, "tags": {"shop": "supermarket"}}, {"type": "node", "id": 6315672862, "lat": 10.7700652, "lon": 106.6820527, "tags": {"name:en": "Circle k", "shop": "supermarket"}}, {"type": "node", "id": 6315672886, "lat": 10.7680302, "lon": 106.698549, "tags": {"shop": "supermarket"}}, {"type": "node", "id": 6315672928, "lat": 10.7916005, "lon": 106.6761072, "tags": {"shop": "supermarket"}}, {"type": "node", "id": 6315672931, "lat": 10.7918196, "lon": 106.6770997, "tags": {"shop": "supermarket"}}, {"type": "node", "id": 6315673290, "lat": 10.7597325, "lon": 106.679414, "tags": {"shop": "supermarket"}}, {"type": "node", "id": 6315673300, "lat": 10.7686252, "lon": 106.6989439, "tags": {"name:en": "B's Mart", "shop": "supermarket"}}, {"type": "node", "id": 6315673311, "lat": 10.7914374, "lon": 106.6764316, "tags": {"shop": "supermarket"}}, {"type": "node", "id": 6315676093, "lat": 10.7732994, "lon": 106.6849919, "tags": {"name:en": "FamilyMart", "shop": "supermarket"}}, {"type": "node", "id": 6315676105, "lat": 10.7916278, "lon": 106.6755438, "tags": {"shop": "supermarket"}}, {"type": "node", "id": 6315679800, "lat": 10.7923361, "lon": 106.6779316, "tags": {"shop": "supermarket"}}, {"type": "node", "id": 6315683489, "lat": 10.7749538, "lon": 106.6642437, "tags": {"name:en": "MiniMart", "shop": "supermarket"}}, {"type": "node", "id": 6315683513, "lat": 10.7917984, "lon": 106.6746883, "tags": {"name:en": "Vin Mart+", "shop": "supermarket"}}, {"type": "node", "id": 6315684186, "lat": 10.787936, "lon": 106.6778758, "tags": {"name:en": "Circle k", "shop": "supermarket"}}, {"type": "node", "id": 6315685086, "lat": 10.7893359, "lon": 106.6782189, "tags": {"shop": "supermarket"}}, {"type": "node", "id": 6315685096, "lat": 10.7861978, "lon": 106.6802251, "tags": {"shop": "supermarket"}}, {"type": "node", "id": 6315685294, "lat": 10.7656939, "lon": 106.6897877, "tags": {"name:en": "FamilyMart", "shop": "supermarket"}}, {"type": "node", "id": 6315685295, "lat": 10.7706222, "lon": 106.7036914, "tags": {"shop": "supermarket"}}, {"type": "node", "id": 6315685985, "lat": 10.7886612, "lon": 106.6781504, "tags": {"shop": "supermarket"}}, {"type": "node", "id": 6315686293, "lat": 10.7617773, "lon": 106.6960949, "tags": {"check_date": "2023-12-31", "level": "0", "name": "Familymart", "name:en": "Familymart", "payment:cash": "yes", "payment:mastercard": "yes", "payment:visa": "yes", "shop": "supermarket", "wheelchair": "yes"}}, {"type": "node", "id": 6315686295, "lat": 10.7605084, "lon": 106.6932442, "tags": {"shop": "supermarket"}}, {"type": "node", "id": 6315686487, "lat": 10.7864111, "lon": 106.6801482, "tags": {"name:en": "Co.opMart", "shop": "supermarket"}}, {"type": "node", "id": 6315686505, "lat": 10.7699152, "lon": 106.68837, "tags": {"name:en": "GS25", "shop": "supermarket"}}, {"type": "node", "id": 6315686506, "lat": 10.7699632, "lon": 106.6923622, "tags": {"name": "Circle K", "shop": "supermarket"}}, {"type": "node", "id": 6315686804, "lat": 10.7603861, "lon": 106.6731486, "tags": {"name:en": "B's mart", "shop": "supermarket"}}, {"type": "node", "id": 6315686994, "lat": 10.760632, "lon": 106.6929757, "tags": {"shop": "supermarket"}}, {"type": "node", "id": 6315686999, "lat": 10.7675893, "lon": 106.6947722, "tags": {"name:en": "Circle k", "shop": "supermarket"}}, {"type": "node", "id": 6315687001, "lat": 10.7593289, "lon": 106.6715532, "tags": {"name": "Si\u00eau Th\u1ecb CoopMart H\u00f9ng V\u01b0\u01a1ng", "name:en": "Co. Op Mart", "shop": "supermarket"}}, {"type": "node", "id": 6315687018, "lat": 10.7982471, "lon": 106.6674906, "tags": {"name:en": "Ministop", "shop": "supermarket"}}, {"type": "node", "id": 6315687789, "lat": 10.7591603, "lon": 106.6735498, "tags": {"name:en": "Familymart", "shop": "supermarket"}}, {"type": "node", "id": 6315687799, "lat": 10.7925143, "lon": 106.6671054, "tags": {"shop": "supermarket"}}, {"type": "node", "id": 6315687806, "lat": 10.7917974, "lon": 106.6902381, "tags": {"shop": "supermarket"}}, {"type": "node", "id": 6315687817, "lat": 10.7830575, "lon": 106.6942504, "tags": {"name:en": "Familymart", "shop": "supermarket"}}, {"type": "node", "id": 6315688299, "lat": 10.8160349, "lon": 106.6978509, "tags": {"name:en": "Vinmart", "shop": "supermarket"}}, {"type": "node", "id": 6315688492, "lat": 10.7916367, "lon": 106.6675247, "tags": {"name:en": "B's mart", "shop": "supermarket"}}, {"type": "node", "id": 6315688599, "lat": 10.8094585, "lon": 106.6950542, "tags": {"name:en": "Vinmart", "shop": "supermarket"}}, {"type": "node", "id": 6315690599, "lat": 10.8134216, "lon": 106.697065, "tags": {"shop": "supermarket"}}, {"type": "node", "id": 6315691886, "lat": 10.8130798, "lon": 106.6967927, "tags": {"shop": "supermarket"}}, {"type": "node", "id": 6318125512, "lat": 10.7721672, "lon": 106.6943354, "tags": {"name:en": "Circle k", "shop": "supermarket"}}, {"type": "node", "id": 6318125514, "lat": 10.7724614, "lon": 106.6950674, "tags": {"name:en": "TD Central Hotel", "shop": "supermarket", "tourism": "hotel"}}, {"type": "node", "id": 6318163392, "lat": 10.7676268, "lon": 106.7001231, "tags": {"name:en": "Shop & go", "shop": "supermarket"}}, {"type": "node", "id": 6319103178, "lat": 10.7645863, "lon": 106.6967021, "tags": {"shop": "supermarket"}}, {"type": "node", "id": 6319103228, "lat": 10.7687743, "lon": 106.6992892, "tags": {"name:en": "Minimart", "shop": "supermarket"}}, {"type": "node", "id": 6319111397, "lat": 10.7645562, "lon": 106.6972327, "tags": {"shop": "supermarket"}}, {"type": "node", "id": 6340130547, "lat": 10.7608529, "lon": 106.7012374, "tags": {"addr:city": "Ho Chi Minh City", "addr:district": "4", "addr:housenumber": "Ke Q34 Ho\u00e0ng Di\u1ec7u, Ph\u01b0\u1eddng 6, Qu\u1eadn 4, H\u1ed3 Ch\u00ed Minh, Vi\u1ec7t Nam", "addr:postcode": "700000", "addr:street": "Ke Q34 Ho\u00e0ng Di\u1ec7u, Ph\u01b0\u1eddng 6, Qu\u1eadn 4, H\u1ed3 Ch\u00ed Minh, Vi\u1ec7t Nam", "addr:subdistrict": "6", "name": "Ph\u1ee5 ki\u1ec7n trang tr\u00ed sinh nh\u1eadt Ellie Party", "opening_hours": "Mo-Su 07:00-22:00", "operator": "https://www.facebook.com/phukientrangtriellieparty/", "shop": "supermarket"}}, {"type": "node", "id": 6353660885, "lat": 10.7723341, "lon": 106.6963242, "tags": {"shop": "supermarket"}}, {"type": "node", "id": 6370262588, "lat": 10.7953551, "lon": 106.6621933, "tags": {"addr:housenumber": "8", "addr:street": "D\u01b0\u01a1ng V\u00e2n Nga", "name": "B\u00e1ch Ho\u00e1 Xanh", "name:en": "Bach hoa XANH", "opening_hours": "Mo-Su 06:30-21:30", "shop": "supermarket"}}, {"type": "node", "id": 6373422186, "lat": 10.7543965, "lon": 106.7093305, "tags": {"name:en": "Night market", "shop": "supermarket"}}, {"type": "node", "id": 6389068969, "lat": 10.7530815, "lon": 106.7037383, "tags": {"name": "Co.op Food", "shop": "supermarket"}}, {"type": "node", "id": 6442018087, "lat": 10.7715103, "lon": 106.6929293, "tags": {"name:en": "Satra Foods", "shop": "supermarket"}}, {"type": "node", "id": 6769791510, "lat": 10.7560618, "lon": 106.7045993, "tags": {"addr:street": "\u0110\u01b0\u1eddng V\u0129nh H\u1ed9i", "name": "Co.op Food", "shop": "supermarket"}}, {"type": "node", "id": 6770361990, "lat": 10.7581725, "lon": 106.7066203, "tags": {"addr:housenumber": "167", "addr:street": "\u0110\u01b0\u1eddng T\u00f4n \u0110\u1ea3n", "name": "Co.op Food", "shop": "supermarket"}}, {"type": "node", "id": 6783472668, "lat": 10.7634465, "lon": 106.7080325, "tags": {"addr:housename": "107", "addr:street": "Nguy\u1ec5n T\u1ea5t Th\u00e0nh", "name": "Satra Foods", "shop": "supermarket"}}, {"type": "node", "id": 6783852977, "lat": 10.753822, "lon": 106.7055139, "tags": {"addr:street": "\u0110\u01b0\u1eddng T\u00f4n \u0110\u1ea3n", "name": "Satra Foods", "shop": "supermarket"}}, {"type": "node", "id": 6786068685, "lat": 10.7555361, "lon": 106.694199, "tags": {"addr:housenumber": "84", "addr:street": "\u0110\u01b0\u1eddng Nguy\u1ec5n Kho\u00e1i", "name": "Co.op Food - Nguy\u1ec5n Kho\u00e1i", "shop": "supermarket"}}, {"type": "node", "id": 6794354485, "lat": 10.7946042, "lon": 106.7215659, "tags": {"brand": "WinMart", "brand:wikidata": "Q60245505", "name": "WinMart", "shop": "supermarket"}}, {"type": "node", "id": 6965164241, "lat": 10.7938895, "lon": 106.7124906, "tags": {"addr:city": "Ho Chi Minh City", "addr:district": "B\u00ecnh Th\u1ea1nh", "addr:housenumber": "59", "addr:street": "Ng\u00f4 T\u1ea5t T\u1ed1", "addr:subdistrict": "Ph\u01b0\u1eddng 21", "name": "Si\u00eau Th\u1ecb Vive Gourmet Food & Wine", "opening_hours": "Mo-Su 08:00-21:00", "shop": "supermarket"}}, {"type": "node", "id": 7016156265, "lat": 10.810612, "lon": 106.7031555, "tags": {"addr:district": "Bi\u00ecnh Th\u1ea1nh", "addr:housenumber": "241A", "addr:street": "Chu V\u0103n An", "addr:subdistrict": "12", "name": "Co.op Mart - Chu V\u0103n An", "shop": "supermarket"}}, {"type": "node", "id": 7017476719, "lat": 10.7988759, "lon": 106.6888887}, {"type": "node", "id": 7017476720, "lat": 10.799162, "lon": 106.6889544}, {"type": "node", "id": 7017476721, "lat": 10.7992362, "lon": 106.6890198}, {"type": "node", "id": 7017476722, "lat": 10.7991965, "lon": 106.689428}, {"type": "node", "id": 7017476723, "lat": 10.7988531, "lon": 106.6894217}, {"type": "node", "id": 7017476724, "lat": 10.7985404, "lon": 106.6894331}, {"type": "node", "id": 7017476725, "lat": 10.7986312, "lon": 106.6889971}, {"type": "node", "id": 7017476726, "lat": 10.7987054, "lon": 106.6889119}, {"type": "node", "id": 7062421085, "lat": 10.7783046, "lon": 106.6651431, "tags": {"name:en": "Big C", "shop": "supermarket"}}, {"type": "node", "id": 7073950886, "lat": 10.7374337, "lon": 106.7255522, "tags": {"brand": "Big C", "brand:wikidata": "Q858665", "brand:wikipedia": "en:Big C", "name": "Big C", "shop": "supermarket"}}, {"type": "node", "id": 7078025375, "lat": 10.796771, "lon": 106.6866507, "tags": {"addr:city": "Ho Chi Minh City", "addr:district": "Ph\u00fa Nhu\u1eadn", "addr:housenumber": "386-388", "addr:province": "H\u1ed3 Ch\u00ed Minh", "addr:street": "Tr\u01b0\u1eddng Sa", "addr:subdistrict": "Ph\u01b0\u1eddng 2", "brand": "BambooBebe", "description": "Bamboo Bebe mang \u0111\u1ebfn c\u00e1c s\u1ea3n ph\u1ea9m \u0111a d\u1ea1ng nh\u01b0: kh\u0103n s\u1eefa, kh\u0103n \u0111a n\u0103ng, kh\u0103n t\u1eafm, kh\u0103n m\u1eb7t,th\u1ea3m l\u00f3t ch\u1ed1ng th\u1ea5m, g\u1ed1i ch\u1ed1ng b\u1eb9p \u0111\u1ea7u, qu\u1ea7n \u00e1o, c\u00e1c s\u1ea3n ph\u1ea9m h\u1ed7 tr\u1ee3 cho m\u1eb9 v\u00e0 b\u00e9, t\u00e3 v\u1ea3i, n\u01b0\u1edbc gi\u1eb7t\u2026", "email": "store@gureumi.vn", "name": "BambooBebe Vi\u1ec7t Nam", "opening_hours": "Mo-Su 09:00-21:00", "operator": "C\u00f4ng ty TNHH Gureumi", "phone": "090 951 11 94", "shop": "supermarket", "website": "www.bamboobebevietnam.com"}}, {"type": "node", "id": 7078048746, "lat": 10.7967542, "lon": 106.6866392, "tags": {"addr:city": "Ho Chi Minh City", "addr:district": "Ph\u00fa Nhu\u1eadn", "addr:housenumber": "386-388", "addr:province": "H\u1ed3 Ch\u00ed Minh", "addr:street": "Tr\u01b0\u1eddng Sa", "addr:subdistrict": "Ph\u01b0\u1eddng 2", "email": "store@gureumi.vn", "name": "C\u00f4ng ty TNHH Gureumi", "opening_hours": "Mo-Su 09:00-20:00", "operator": "C\u00f4ng ty TNHH Gureumi", "shop": "supermarket", "website": "https://gureumi.store/"}}, {"type": "node", "id": 7436469385, "lat": 10.7808095, "lon": 106.6785971, "tags": {"addr:street": "Nguy\u1ec5n Ph\u00fac Nguy\u00ean", "brand": "WinMart", "brand:wikidata": "Q60245505", "name": "WinMart", "not:brand:wikidata": "Q60245505", "shop": "supermarket"}}, {"type": "node", "id": 7499892808, "lat": 10.7559254, "lon": 106.7083025, "tags": {"name": "Ch\u1ee3 200", "name:en": "Street food Market 200", "name:id": "Pasar jajanan jalanan 200", "name:ko": "200 \uae38\uac70\ub9ac\uc74c\uc2dd\uc2dc\uc7a5", "name:zh": "\u0443\u043b\u0438\u0447\u043d\u044b\u0439 \u0440\u044b\u043d\u043e\u043a 200", "shop": "supermarket"}}, {"type": "node", "id": 7829883985, "lat": 10.799293, "lon": 106.6993939, "tags": {"name": "Foodmart", "shop": "supermarket"}}, {"type": "node", "id": 8100983490, "lat": 10.7459593, "lon": 106.6830717, "tags": {"name": "B\u00e1ch Ho\u00e1 Xanh", "shop": "supermarket"}}, {"type": "node", "id": 8929032542, "lat": 10.7684286, "lon": 106.6645542, "tags": {"addr:city": "Ho Chi Minh City", "addr:district": "10", "addr:housenumber": "3/53/2", "addr:street": "Th\u00e0nh Th\u00e1i", "addr:subdistrict": "14", "name": "C\u1ee7a H\u00e0ng T\u1ea1p H\u00f3a TA", "opening_hours": "Mo-Su 09:00-22:00", "phone": "0918145855", "shop": "supermarket"}}, {"type": "node", "id": 9584911957, "lat": 10.7716235, "lon": 106.6807503, "tags": {"name": "Si\u00eau Th\u1ecb Aeon Citimart Cao Th\u1eafng", "shop": "supermarket"}}, {"type": "node", "id": 9585117677, "lat": 10.7748338, "lon": 106.6746916, "tags": {"name": "Si\u00eau Th\u1ecb Co.opmart", "name:en": "Co.opmart Cao Thang Supermarket", "shop": "supermarket"}}, {"type": "node", "id": 9585983486, "lat": 10.8014176, "lon": 106.7331065, "tags": {"addr:city": "Th\u00e0nh ph\u1ed1 Th\u1ee7 \u0110\u1ee9c", "addr:district": "2", "addr:housenumber": "12", "addr:province": "H\u1ed3 Ch\u00ed Minh", "addr:street": "Qu\u1ed1c H\u01b0\u01a1ng", "addr:subdistrict": "Th\u1ea3o \u0110i\u1ec1n", "name": "Tops Market - Th\u1ea3o \u0110i\u1ec1n", "opening_hours": "Mo-Su 07:30-22:00", "phone": "+84 28 3519 3224", "shop": "supermarket"}}, {"type": "node", "id": 9586952125, "lat": 10.7564696, "lon": 106.6781767, "tags": {"name": "Coop Food - Chung c\u01b0 Phan V\u0103n Tr\u1ecb", "shop": "supermarket"}}, {"type": "node", "id": 9587253814, "lat": 10.7324976, "lon": 106.7288103, "tags": {"name": "Si\u00eau th\u1ecb Finelife Riviera Point", "shop": "supermarket"}}, {"type": "node", "id": 9587268697, "lat": 10.7322198, "lon": 106.7061506, "tags": {"brand": "VinMart", "brand:wikidata": "Q60245505", "brand:wikipedia": "vi:WinMart", "name": "VinMart", "shop": "supermarket"}}, {"type": "node", "id": 9593358301, "lat": 10.7516211, "lon": 106.7350294, "tags": {"name": "Southern AEON Citimart T\u00e2n Thu\u1eadn", "shop": "supermarket"}}, {"type": "node", "id": 9645043685, "lat": 10.7891717, "lon": 106.7186066, "tags": {"addr:city": "Ph\u01b0\u1eddng 22", "addr:district": "Binh Thanh", "addr:housenumber": "92", "addr:province": "Ho Chi Minh", "addr:street": "Nguy\u1ec5n H\u1eefu C\u1ea3nh", "addr:subdistrict": "Opal Tower, Shophouse SH06-07", "name": "Annam Gourmet", "shop": "supermarket"}}, {"type": "node", "id": 9921298480, "lat": 10.7680881, "lon": 106.6845432, "tags": {"name": "Grove Fresh", "shop": "supermarket"}}, {"type": "node", "id": 10539950899, "lat": 10.7999158, "lon": 106.6939909, "tags": {"name": "Ch\u1ee3 V\u1ea1n Ki\u1ebfp", "shop": "supermarket"}}, {"type": "node", "id": 10733347375, "lat": 10.7813922, "lon": 106.6915333}, {"type": "node", "id": 10777132872, "lat": 10.7905118, "lon": 106.711594}, {"type": "node", "id": 10777132873, "lat": 10.7905212, "lon": 106.71155}, {"type": "node", "id": 10777132874, "lat": 10.7906386, "lon": 106.7115777}, {"type": "node", "id": 10777132875, "lat": 10.7906581, "lon": 106.7116089}, {"type": "node", "id": 10777132876, "lat": 10.7906522, "lon": 106.7116352}, {"type": "node", "id": 10777132877, "lat": 10.7905107, "lon": 106.711599}, {"type": "node", "id": 10777134131, "lat": 10.7900679, "lon": 106.7111094, "tags": {"addr:city": "Ho Chi Minh City", "addr:district": "B\u00ecnh Th\u1ea1nh", "addr:housenumber": "76A", "addr:postcode": "700000", "addr:province": "H\u1ed3 Ch\u00ed Minh", "addr:street": "\u0110\u01b0\u1eddng Ph\u1ea1m Vi\u1ebft Ch\u00e1nh", "addr:subdistrict": "Ph\u01b0\u1eddng 19", "air_conditioning": "yes", "diet:meat": "yes", "email": "basao.net@gmail.com", "image": "https://www.facebook.com/photo/?fbid=198696639432332&set=a.198696636098999", "internet_access": "yes", "internet_access:fee": "customers", "name": "C\u1eeda h\u00e0ng B\u00e1ch h\u00f3a Basao Grocery", "opening_hours": "Mo-Su 07:00-22:00", "operator": "B\u00e1ch h\u00f3a Basao", "organic": "only", "payment:app": "yes", "payment:cards": "yes", "payment:cash": "yes", "payment:credit_cards": "yes", "payment:debit_cards": "yes", "payment:mastercard": "yes", "payment:visa": "yes", "payment:visa_debit": "yes", "phone": "0982896297", "shop": "supermarket", "toilets": "yes", "website": "https://www.facebook.com/basao.net", "wikipedia": "vi:https://zalo.me/84982896297"}}, {"type": "node", "id": 10801342656, "lat": 10.7957801, "lon": 106.6953508, "tags": {"addr:city": "HCMC", "addr:district": "Quan Binh Thanh", "addr:housenumber": "24", "addr:street": "V\u0169 Huy T\u1ea5n", "addr:subdistrict": "3", "name": "G\u1ea1o H\u1ed3ng Nhung", "opening_hours": "Mo-Su 08:00-20:00", "phone": "0979354567", "shop": "supermarket"}}, {"type": "node", "id": 10807959905, "lat": 10.7773144, "lon": 106.7055429, "tags": {"name:en": "Circle K", "shop": "supermarket"}}, {"type": "node", "id": 10879939105, "lat": 10.7706211, "lon": 106.6793367, "tags": {"name:en": "Busy Morning Market", "shop": "supermarket"}}, {"type": "node", "id": 11001842969, "lat": 10.7931686, "lon": 106.6722756, "tags": {"addr:city": "Ho Chi Minh City", "addr:district": "Ph\u00fa Nhu\u1eadn", "addr:housenumber": "123", "addr:postcode": "70000", "addr:province": "H\u1ed3 Ch\u00ed Minh", "addr:street": "Tr\u1ea7n H\u1eefu Trang", "addr:subdistrict": "Ph\u01b0\u1eddng 10", "name": "B\u00e1ch H\u00f3a Xanh grocery store", "opening_hours": "Mo-Su 09:00-21:00", "payment:cash": "yes", "payment:debit_cards": "yes", "shop": "supermarket"}}, {"type": "node", "id": 11124634717, "lat": 10.7684748, "lon": 106.6986624, "tags": {"addr:city": "TP. H\u1ed3 Ch\u00ed Minh", "addr:district": "District 1", "addr:housenumber": "116", "addr:postcode": "70000", "addr:street": "Nguy\u1ec5n Th\u00e1i B\u00ecnh", "addr:subdistrict": "Ph\u01b0\u1eddng Nguy\u1ec5n Th\u00e1i B\u00ecnh", "name": "116 Culture Luxury", "opening_hours": "Mo-Su 09:00-22:00", "phone": "0911 618 116", "shop": "supermarket"}}, {"type": "node", "id": 11433411769, "lat": 10.7656009, "lon": 106.6947703, "tags": {"shop": "supermarket"}}, {"type": "node", "id": 11515855866, "lat": 10.7532921, "lon": 106.6747077, "tags": {"name": "C\u1eeda H\u00e0ng Vinh Ph\u00e1t", "shop": "supermarket"}}, {"type": "node", "id": 11533727958, "lat": 10.7782504, "lon": 106.7020738, "tags": {"addr:floor": "B3", "addr:housenumber": "72", "addr:street": "\u0110\u01b0\u1eddng L\u00ea Th\u00e1nh T\u00f4n", "brand": "WinMart", "brand:wikidata": "Q60245505", "check_date": "2024-01-20", "level": "-3", "name": "WinMart", "payment:cash": "yes", "payment:mastercard": "yes", "payment:visa": "yes", "shop": "supermarket"}}, {"type": "node", "id": 11612841316, "lat": 10.782216, "lon": 106.7191754, "tags": {"addr:city": "Th\u00e0nh ph\u1ed1 H\u1ed3 Ch\u00ed Minh", "addr:district": "Qu\u1eadn 2", "addr:housenumber": "23", "addr:street": "Tr\u1ea7n B\u1ea1ch \u0110\u1eb1ng", "addr:subdistrict": "Th\u1ee7 Thi\u00eam", "name": "Vive Gourmet Food & Wine - The River", "shop": "supermarket"}}, {"type": "node", "id": 12113905520, "lat": 10.7375066, "lon": 106.7257064}, {"type": "node", "id": 12113905521, "lat": 10.7375212, "lon": 106.7258106}, {"type": "node", "id": 12113905522, "lat": 10.7374995, "lon": 106.7258137}, {"type": "node", "id": 12113905523, "lat": 10.7375192, "lon": 106.7259546}, {"type": "node", "id": 12113905524, "lat": 10.7373457, "lon": 106.7259797}, {"type": "node", "id": 12113905525, "lat": 10.7372125, "lon": 106.7250278}, {"type": "node", "id": 12113905526, "lat": 10.7374738, "lon": 106.7249899}, {"type": "node", "id": 12113905527, "lat": 10.7375011, "lon": 106.7251848}, {"type": "node", "id": 12113905530, "lat": 10.7374972, "lon": 106.7253331}, {"type": "node", "id": 12113905531, "lat": 10.7375297, "lon": 106.7255649}, {"type": "node", "id": 12113905537, "lat": 10.7371878, "lon": 106.7259633}, {"type": "node", "id": 12113905538, "lat": 10.7369933, "lon": 106.7259921}, {"type": "node", "id": 12113905539, "lat": 10.7369495, "lon": 106.7256856}, {"type": "node", "id": 12113905546, "lat": 10.7369178, "lon": 106.7253936}, {"type": "node", "id": 12113905547, "lat": 10.736874, "lon": 106.7250871}, {"type": "node", "id": 12113905548, "lat": 10.737067, "lon": 106.7250585}, {"type": "node", "id": 12113905561, "lat": 10.7374875, "lon": 106.725571}, {"type": "node", "id": 12113905562, "lat": 10.7374758, "lon": 106.7251885}, {"type": "node", "id": 12113905563, "lat": 10.7372145, "lon": 106.7250414}, {"type": "node", "id": 12113905564, "lat": 10.7373404, "lon": 106.725942}, {"type": "node", "id": 12299044714, "lat": 10.7804412, "lon": 106.7350838, "tags": {"name": "Nam An Market", "shop": "supermarket"}}, {"type": "way", "id": 59339647, "nodes": [735998141, 735998159, 735998180, 2686083908, 10733347375, 2686083909, 2686083910, 2686083906, 2686083905, 735998201, 735998141], "tags": {"addr:city": "Ho Chi Minh City", "addr:housenumber": "168", "addr:street": "Nguy\u1ec5n \u00d0\u00ecnh Chi\u1ec3u", "atm": "yes", "building": "yes", "building:levels": "2", "delivery": "yes", "name": "Co.opmart - Nguy\u1ec5n \u0110\u00ecnh Chi\u1ec3u", "shop": "supermarket"}}, {"type": "way", "id": 60118191, "nodes": [746932573, 746932574, 746932575, 746932576, 746932573], "tags": {"addr:district": "Ph\u00fa Nhu\u1eadn", "addr:housenumber": "571-573", "addr:province": "H\u1ed3 Ch\u00ed Minh", "addr:street": "Nguy\u1ec5n Ki\u1ec7m", "addr:subdistrict": "Ph\u01b0\u1eddng 9", "building": "yes", "name": "CO.OP Mart Nguy\u1ec5n Ki\u1ec7m", "name:en": "CO.OP Mart", "opening_hours": "Mo-Su 07:30-22:00", "shop": "supermarket"}}, {"type": "way", "id": 112287488, "nodes": [1276705969, 1276705966, 1276705964, 1276705968, 1276705969], "tags": {"landuse": "retail", "name": "Mega Market An Ph\u00fa", "shop": "supermarket"}}, {"type": "way", "id": 112319460, "nodes": [1276983144, 1276983180, 1276983247, 1277146607, 1277146553, 1276983226, 1276983144], "tags": {"name": "COOP Mart Food", "note": "t\u1ea7ng tr\u1ec7t", "shop": "supermarket"}}, {"type": "way", "id": 152994798, "nodes": [1657536332, 1657536313, 1657536318, 1657536311, 1657536316, 1657536332], "tags": {"addr:street": "C\u1ed1ng Qu\u1ef3nh", "check_date": "2023-11-08", "name": "Co.op Mart C\u1ed1ng Qu\u1ef3nh", "shop": "supermarket"}}, {"type": "way", "id": 189067538, "nodes": [1997154614, 1997154471, 1997154664, 1997154469, 1997154614], "tags": {"building": "yes", "name": "Coopmart L\u00fd Th\u01b0\u1eddng Ki\u1ec7t", "shop": "supermarket"}}, {"type": "way", "id": 256678152, "nodes": [2623148533, 2623148535, 3762366336, 3762367180, 3762367165, 2623148538, 2623148533], "tags": {"building": "yes", "name": "An Phu Supermarket", "shop": "supermarket"}}, {"type": "way", "id": 260017030, "nodes": [2654717064, 2654717066, 2654717068, 2654717070, 2654717064], "tags": {"addr:city": "HCMC", "building": "yes", "name": "Ch\u1ee3 Thanh \u0110a", "shop": "supermarket"}}, {"type": "way", "id": 263444626, "nodes": [2690659762, 2690659763, 2690659764, 2690659767, 2690659768, 2690659769, 2690659766, 2690659770, 2690659771, 2690659765, 2690659772, 2690659775, 2690659774, 4582328601, 2690659773, 2690659762], "tags": {"addr:district": "Qu\u1eadn 10", "addr:housenumber": "268", "addr:province": "Th\u00e0nh ph\u1ed1 H\u1ed3 Ch\u00ed Minh", "addr:street": "\u0110\u01b0\u1eddng T\u00f4 Hi\u1ebfn Th\u00e0nh", "addr:subdistrict": "Ph\u01b0\u1eddng 15", "brand": "Big C", "building": "yes", "name": "Big C", "nohousenumber": "yes", "opening_hours": "08:00-22:00", "shop": "supermarket"}}, {"type": "way", "id": 330304844, "nodes": [3372657110, 3372657111, 3757239387, 3757239386, 3757239385, 3372657108, 3372657110], "tags": {"addr:city": "Th\u00e0nh ph\u1ed1 H\u1ed3 Ch\u00ed Minh", "addr:district": "Qu\u1eadn 10", "addr:housenumber": "460", "addr:province": "Th\u00e0nh ph\u1ed1 H\u1ed3 Ch\u00ed Minh", "addr:street": "\u0110\u01b0\u1eddng 3 Th\u00e1ng 2", "addr:subdistrict": "Ph\u01b0\u1eddng 12", "building": "yes", "name": "Si\u00eau th\u1ecb S\u00e0i G\u00f2n (SATRA MART)", "opening_hours": "07:30-22:00", "shop": "supermarket"}}, {"type": "way", "id": 420287572, "nodes": [4202267631, 4202267603, 4202267615, 4202267623, 4202267624, 4202267640, 4202267631], "tags": {"building": "yes", "name": "Co.opMart Tuy L\u00fd V\u01b0\u01a1ng", "shop": "supermarket"}}, {"type": "way", "id": 430615286, "nodes": [4298805218, 4298805219, 4298805220, 4298805216, 4298805217, 4298805213, 4298805218], "tags": {"building": "yes", "shop": "supermarket"}}, {"type": "way", "id": 509015321, "nodes": [4983065216, 4983065217, 4983065218, 4983065219, 4983065220, 4983065321, 4983065322, 4983065323, 4983065216], "tags": {"addr:city": "Ho Chi Minh City", "addr:district": "10", "addr:street": "3 Th\u00e1ng 2", "building": "yes", "name": "Vinmart (Maximark) 3 th\u00e1ng 2", "shop": "supermarket"}}, {"type": "way", "id": 596552736, "nodes": [5682480427, 5682480429, 5682480422, 5682480423, 5682480427], "tags": {"addr:city": "TP. H\u1ed3 Ch\u00ed Minh", "addr:housename": "\u0110i\u1ec7n m\u00e1y Gia Th\u00e0nh", "addr:housenumber": "975", "addr:street": "Tr\u1ea7n H\u01b0ng \u0110\u1ea1o", "name": "\u0110i\u1ec7n m\u00e1y Gia Th\u00e0nh", "shop": "supermarket", "website": "https://giathanh.vn/"}}, {"type": "way", "id": 750511344, "nodes": [7017476719, 7017476720, 7017476721, 7017476722, 7017476723, 7017476724, 7017476725, 7017476726, 7017476719], "tags": {"addr:city": "Ho Chi Minh City", "addr:district": "Ph\u00fa Nhu\u1eadn", "addr:housenumber": "48", "addr:street": "Hoa S\u1ee9", "addr:subdistrict": "Ph\u01b0\u1eddng 7", "building": "yes", "name": "Co.opmart R\u1ea1ch Mi\u1ec5u", "shop": "supermarket"}}, {"type": "way", "id": 1158889693, "nodes": [10777132872, 10777132873, 10777132874, 10777132875, 10777132876, 10777132877, 10777132872], "tags": {"addr:city": "Ho Chi Minh City", "addr:district": "B\u00ecnh Th\u1ea1nh", "addr:housenumber": "14", "addr:postcode": "700000", "addr:province": "H\u1ed3 Ch\u00ed Minh", "addr:street": "\u0110\u01b0\u1eddng Tr\u1ea7n Quang Long", "addr:subdistrict": "Ph\u01b0\u1eddng 19", "air_conditioning": "yes", "building": "yes", "description": "\uff2e\uff28\u00c0 \uff33\u00c1\uff23\uff28 \uff22\uff21\uff33\uff21\uff2f \u00ae . \ud83d\udd30C\u1eeda h\u00e0ng b\u00ean m\u00ecnh m\u1edf c\u1eeda c\u1ea3 tu\u1ea7n t\u1ea1i b\u00ecnh th\u1ea1nh\u2b50\ufe0fv\u00e0 \u0111\u1ec1u c\u00f3 c\u00e1c b\u1ea1n nh\u00e2n vi\u00ean s\u1ebd nhi\u1ec7t t\u00ecnh h\u1ed7 tr\u1ee3 c\u00e1c b\u1ea1n nh\u00e9\ud83c\udf3a . facebook.com/basao_bookstore_stationery . \u260e\ufe0f S\u0110T \u2013 Hotline(Zalo): 0982896297 \u260e\ufe0f S\u0110T B\u00e0n: 028 3840 3060", "email": "basao.net@gmail.com", "height": "20", "image": "https://www.facebook.com/photo/?fbid=741625830666086&set=a.741625813999421", "internet_access": "yes", "internet_access:fee": "customers", "name": "Nh\u00e0 S\u00e1ch Basao Stationery", "opening_hours": "Mo-Su 07:00-22:00", "operator": "Nh\u00e0 S\u00e1ch Basao", "payment:app": "yes", "payment:cards": "yes", "payment:cash": "yes", "payment:credit_cards": "yes", "payment:debit_cards": "yes", "payment:mastercard": "yes", "payment:visa": "yes", "phone": "0982896297", "shop": "supermarket", "start_date": "2006-08-02", "toilets": "yes", "website": "https://www.facebook.com/basao_bookstore_stationery", "wikipedia": "vi:https://zalo.me/84982896297"}}, {"type": "way", "id": 1308072064, "nodes": [12113905523, 12113905522, 12113905521, 12113905520, 12113905561, 12113905531, 12113905530, 12113905562, 12113905527, 12113905526, 12113905525, 12113905563, 12113905548, 12113905547, 12113905546, 12113905539, 12113905538, 12113905537, 12113905564, 12113905524, 12113905523], "tags": {"addr:city": "Ph\u01b0\u1eddng T\u00e2n Ph\u00fa", "addr:district": "Qu\u1eadn 7", "addr:housenumber": "99", "addr:province": "Th\u00e0nh ph\u1ed1 H\u1ed3 Ch\u00ed Minh", "addr:street": "Nguy\u1ec5n Th\u1ecb Th\u1eadp", "addr:subdistrict": "Ph\u01b0\u1eddng T\u00e2n Ph\u00fa", "building": "yes", "name": "GO! Nguy\u1ec5n Th\u1ecb Th\u1eadp", "shop": "supermarket"}}]}